trilat,trilong,ssid,qos,transid,firsttime,lasttime,lastupdt,netid,name,type,comment,wep,bcninterval,freenet,dhcp,paynet,userfound,channel,rcois,encryption,country,region,road,city,housenumber,postalcode,location_type
37.30482101,-121.88941193,Helium Mobile,0,20240127-00000,2024-01-27T18:00:00.000Z,2024-01-27T16:00:00.000Z,2024-01-27T17:00:00.000Z,60:81:F9:E9:67:57,,infra,,2,0,?,?,?,False,100,,wpa2,US,CA,Jansen Avenue,San Jose,823,95125,Residential
37.78488541,-122.45018768,Helium Mobile,0,20240321-00000,2024-03-21T01:00:00.000Z,2024-03-21T00:00:00.000Z,2024-03-21T00:00:00.000Z,60:81:F9:E9:67:97,,infra,,2,0,?,?,?,False,100,0.0,wpa2,US,CA,Collins Street,San Francisco,82;84,94118,Residential
37.78461456,-122.45013428,Helium Mobile,0,20240321-00000,2024-03-21T01:00:00.000Z,2024-03-21T00:00:00.000Z,2024-03-21T00:00:00.000Z,60:81:F9:E9:67:98,,infra,,2,0,?,?,?,False,9,0.0,wpa2,US,CA,Collins Street,San Francisco,82;84,94118,Residential
37.30482101,-121.88942719,Helium Mobile,2,20240127-00000,2024-01-27T18:00:00.000Z,2024-03-08T20:00:00.000Z,2024-03-08T23:00:00.000Z,62:81:F9:E9:67:57,,infra,,2,0,?,?,?,False,116,0.0,wpa2,US,CA,Jansen Avenue,San Jose,823,95125,Residential
37.78488541,-122.45018768,Helium Mobile,0,20240321-00000,2024-03-21T01:00:00.000Z,2024-03-21T00:00:00.000Z,2024-03-21T00:00:00.000Z,62:81:F9:E9:67:97,,infra,,2,0,?,?,?,False,100,0.0,wpa2,US,CA,Collins Street,San Francisco,82;84,94118,Residential
40.0193634,-105.27311707,Helium Mobile,6,20240425-00000,2024-04-26T02:00:00.000Z,2024-05-12T14:00:00.000Z,2024-05-12T16:00:00.000Z,64:97:14:00:CE:46,,infra,,2,0,?,?,?,False,6,0.0,wpa2,US,CO,Pearl Street,Boulder,,80306,Business
40.01939011,-105.27292633,Helium Mobile,6,20240423-00000,2024-04-24T02:00:00.000Z,2024-05-12T18:00:00.000Z,2024-05-12T20:00:00.000Z,64:97:14:00:CE:47,,infra,,2,0,?,?,?,False,56,0.0,wpa2,US,CO,Pearl Street,Boulder,1713,80306,Business
40.01930237,-105.27290344,Helium Mobile,2,20240511-00000,2024-05-11T03:00:00.000Z,2024-05-12T18:00:00.000Z,2024-05-12T20:00:00.000Z,74:97:8E:00:01:72,,infra,,2,0,?,?,?,False,52,0.0,wpa2,US,CO,Pearl Street,Boulder,1710,80306,Residential
33.71832275,-84.41236115,Helium Mobile,0,20240221-00000,2024-02-21T04:00:00.000Z,2024-02-21T01:00:00.000Z,2024-02-21T02:00:00.000Z,74:97:8E:00:02:52,,infra,,2,0,?,?,?,False,149,0.0,wpa2,US,GA,Dill Avenue Southwest,Atlanta,,30310-4446,Residential
40.00328064,-105.28668213,Helium Mobile,0,20240118-00000,2024-01-18T22:00:00.000Z,2024-01-18T14:00:00.000Z,2024-01-18T16:00:00.000Z,74:97:8E:00:02:C3,,infra,,2,0,?,?,?,False,1,,wpa2,US,CO,6th Street,Boulder,,80802,Residential
25.76287079,-80.19178772,Helium Mobile,0,20240401-00000,2024-03-22T23:00:00.000Z,2024-04-01T17:00:00.000Z,2024-04-01T18:00:00.000Z,74:97:8E:00:03:52,,infra,,2,0,?,?,?,False,100,0.0,wpa2,US,FL,Brickell Avenue,Miami,1060,33131,Residential
25.76596069,-80.18873596,Helium Mobile,5,20240107-00000,2024-01-07T17:00:00.000Z,2024-06-29T16:00:00.000Z,2024-06-29T18:00:00.000Z,74:97:8E:00:03:92,,infra,,2,0,?,?,?,False,149,0.0,wpa2,US,FL,Brickell Key Drive,Miami,,33131,Business
25.76610947,-80.18868256,Helium Mobile,0,20240321-00000,2024-03-21T13:00:00.000Z,2024-03-21T07:00:00.000Z,2024-03-21T07:00:00.000Z,74:97:8E:00:03:93,,infra,,2,0,?,?,?,False,11,0.0,wpa2,US,FL,Baywalk,Miami,,33131,Business
25.79569626,-80.19268799,Helium Mobile,0,20240609-00000,2024-06-06T16:00:00.000Z,2024-06-09T19:00:00.000Z,2024-06-09T23:00:00.000Z,74:97:8E:00:03:C2,,infra,,2,0,?,?,?,False,100,0.0,wpa2,US,FL,Northeast 20th Street,Miami,120,33132,Residential
40.73125458,-73.99417114,Helium Mobile,6,20240205-00000,2024-02-05T18:00:00.000Z,2024-04-29T12:00:00.000Z,2024-04-29T12:00:00.000Z,74:97:8E:00:04:22,,infra,,2,0,?,?,?,False,116,0.0,wpa2,US,NY,University Place,City of New York,,10003,Residential
40.73121262,-73.99394989,Helium Mobile,3,20240206-00000,2024-02-06T18:00:00.000Z,2024-04-29T12:00:00.000Z,2024-04-29T12:00:00.000Z,74:97:8E:00:04:23,,infra,,2,0,?,?,?,False,6,0.0,wpa2,US,NY,East 8th Street,City of New York,44,10003,Business
33.42258835,-111.73675537,Helium Mobile,4,20240101-00000,2004-05-17T23:00:00.000Z,2024-02-22T16:00:00.000Z,2024-02-22T17:00:00.000Z,74:97:8E:00:04:42,,infra,,2,0,?,?,?,False,100,0.0,wpa2,US,AZ,East University Drive,Mesa,,85205,Business
38.58784866,-90.29299927,Helium Mobile,0,20240425-00000,2024-04-25T15:00:00.000Z,2024-04-25T11:00:00.000Z,2024-04-25T11:00:00.000Z,74:97:8E:00:04:52,,infra,,2,0,?,?,?,False,116,0.0,wpa2,US,MO,Murdoch Avenue,Saint Louis,,63109,Business
38.58782196,-90.2930069,Helium Mobile,2,20240416-00000,2024-04-16T17:00:00.000Z,2024-04-25T11:00:00.000Z,2024-04-25T11:00:00.000Z,74:97:8E:00:04:53,,infra,,2,0,?,?,?,False,11,0.0,wpa2,US,MO,Murdoch Avenue,Saint Louis,,63109,Business
25.85400772,-80.31602478,Helium Mobile,1,20240420-00000,2024-04-20T12:00:00.000Z,2024-04-21T07:00:00.000Z,2024-04-21T07:00:00.000Z,74:97:8E:00:04:82,,infra,,2,0,?,?,?,False,149,0.0,wpa2,US,FL,West 35th Place,Hialeah,,33012:33166,Business
25.85400772,-80.31593323,Helium Mobile,1,20240420-00000,2024-04-20T12:00:00.000Z,2024-04-21T07:00:00.000Z,2024-04-21T07:00:00.000Z,74:97:8E:00:04:83,,infra,,2,0,?,?,?,False,11,0.0,wpa2,US,FL,West 35th Place,Hialeah,,33012:33166,Business
26.00805092,-80.28932953,Helium Mobile,0,20240213-00000,2024-02-10T16:00:00.000Z,2024-02-13T02:00:00.000Z,2024-02-13T02:00:00.000Z,74:97:8E:00:04:DB,,infra,,2,0,?,?,?,False,11,0.0,wpa2,US,FL,Pines Boulevard,Pembroke Pines,,33026-4102,Business
33.11922836,-117.12742615,Helium Mobile,0,20240530-00000,2024-05-21T00:00:00.000Z,2024-05-30T14:00:00.000Z,2024-05-30T15:00:00.000Z,74:97:8E:00:05:0B,,infra,,2,0,?,?,?,False,1,0.0,wpa2,US,CA,Country Club Drive,Escondido,1110,92029,Residential
34.19761658,-119.21738434,Helium Mobile,0,20240413-00000,2024-04-13T04:00:00.000Z,2024-04-13T00:00:00.000Z,2024-04-13T04:00:00.000Z,74:97:8E:00:05:4A,,infra,,2,0,?,?,?,False,132,0.0,wpa2,US,CA,West 5th Street,Oxnard,,93035-1203,Business
34.19750595,-119.2180481,Helium Mobile,1,20240413-00000,2024-04-11T02:00:00.000Z,2024-04-13T00:00:00.000Z,2024-04-13T04:00:00.000Z,74:97:8E:00:05:4B,,infra,,2,0,?,?,?,False,1,0.0,wpa2,US,CA,West 5th Street,Oxnard,,93035-1203,Residential
38.90270233,-77.40621948,Helium Mobile,0,20240126-00000,2024-01-26T10:00:00.000Z,2024-01-26T02:00:00.000Z,2024-01-26T02:00:00.000Z,74:97:8E:00:05:5B,,infra,,2,0,?,?,?,False,11,,wpa2,US,VA,Fairfax County Parkway,,,20171,Business
42.41466904,-71.09333038,Helium Mobile,0,20240810-00000,2024-08-10T18:00:00.000Z,2024-08-10T14:00:00.000Z,2024-08-10T15:00:00.000Z,74:97:8E:00:05:72,,infra,,2,0,?,?,?,False,100,0.0,wpa2,US,MA,Spring Street,Medford,69,02155-4902,Residential
42.41436768,-71.09344482,Helium Mobile,0,20240810-00000,2024-08-10T18:00:00.000Z,2024-08-10T14:00:00.000Z,2024-08-10T15:00:00.000Z,74:97:8E:00:05:73,,infra,,2,0,?,?,?,False,6,0.0,wpa2,US,MA,Spring Street,Medford,61,02155-4902,Residential
37.32913208,-121.85905457,Helium Mobile,0,20240120-00000,2024-01-20T08:00:00.000Z,2024-01-20T04:00:00.000Z,2024-01-20T04:00:00.000Z,74:97:8E:00:05:8A,,infra,,2,0,?,?,?,False,116,,wpa2,US,CA,Story Road,San Jose,779,95122,Residential
37.3294754,-121.85978699,Helium Mobile,0,20240120-00000,2024-01-20T09:00:00.000Z,2024-01-20T04:00:00.000Z,2024-01-20T04:00:00.000Z,74:97:8E:00:05:8B,,infra,,2,0,?,?,?,False,4,,wpa2,US,CA,Story Road,San Jose,779,95122,Business
47.5202446,-122.25971985,Helium Mobile,0,20240309-00000,2024-03-10T03:00:00.000Z,2024-03-09T20:00:00.000Z,2024-03-09T21:00:00.000Z,74:97:8E:00:05:B2,,infra,,2,0,?,?,?,False,116,0.0,wpa2,US,WA,Rainier Avenue South,Seattle,9551,98118,Residential
47.52031708,-122.26026917,Helium Mobile,0,20240309-00000,2024-03-10T03:00:00.000Z,2024-03-09T20:00:00.000Z,2024-03-09T21:00:00.000Z,74:97:8E:00:05:B3,,infra,,2,0,?,?,?,False,1,0.0,wpa2,US,WA,Rainier Avenue South,Seattle,9551,98118,Residential
42.40897751,-71.05381012,Helium Mobile,5,20240112-00000,2024-01-12T18:00:00.000Z,2024-06-20T15:00:00.000Z,2024-06-20T16:00:00.000Z,74:97:8E:00:06:02,,infra,,2,0,?,?,?,False,36,0.0,wpa2,US,MA,Ellsworth Street,,13,02149-2512,Residential
42.40901947,-71.05380249,Helium Mobile,5,20240112-00000,2024-01-12T18:00:00.000Z,2024-06-21T11:00:00.000Z,2024-06-21T11:00:00.000Z,74:97:8E:00:06:03,,infra,,2,0,?,?,?,False,11,0.0,wpa2,US,MA,Ellsworth Street,,13,02149-2512,Residential
29.6858902,-95.32688141,Helium Mobile,1,20240307-00000,2024-03-07T18:00:00.000Z,2024-03-15T04:00:00.000Z,2024-03-15T04:00:00.000Z,74:97:8E:00:06:1A,,infra,,2,0,?,?,?,False,149,0.0,wpa2,US,TX,Osborn Street,Houston,,77033,Residential
29.75220871,-95.40227509,Helium Mobile,0,20240715-00000,2024-05-03T23:00:00.000Z,2024-07-15T05:00:00.000Z,2024-07-15T06:00:00.000Z,74:97:8E:00:06:83,,infra,,2,0,?,?,?,False,11,0.0,wpa2,US,TX,Dunlavy Street,Houston,,77019-1999,Residential
25.85401917,-80.31601715,Helium Mobile,1,20240419-00000,2024-04-20T00:00:00.000Z,2024-04-21T07:00:00.000Z,2024-04-21T07:00:00.000Z,74:97:8E:00:06:AA,,infra,,2,0,?,?,?,False,52,0.0,wpa2,US,FL,West 35th Place,Hialeah,,33012:33166,Business
25.8539505,-80.31603241,Helium Mobile,1,20240420-00000,2024-04-20T12:00:00.000Z,2024-04-21T07:00:00.000Z,2024-04-21T07:00:00.000Z,74:97:8E:00:06:AB,,infra,,2,0,?,?,?,False,11,0.0,wpa2,US,FL,West 35th Place,Hialeah,,33012:33166,Business
38.90275192,-77.40629578,Helium Mobile,5,20240111-00000,2024-01-11T10:00:00.000Z,2024-07-24T06:00:00.000Z,2024-07-25T01:00:00.000Z,74:97:8E:00:06:BB,,infra,,2,0,?,?,?,False,11,0.0,wpa2,US,VA,Fairfax County Parkway,,,20171,Business
40.77620316,-73.98212433,Helium Mobile,5,20240222-00000,2024-02-22T21:00:00.000Z,2024-06-21T18:00:00.000Z,2024-06-21T21:00:00.000Z,74:97:8E:00:06:CA,,infra,,2,0,?,?,?,False,36,0.0,wpa2,US,NY,West 69th Street,City of New York,147,10023,Residential
33.11868668,-117.12743378,Helium Mobile,0,20240530-00000,2024-05-21T00:00:00.000Z,2024-05-30T14:00:00.000Z,2024-05-30T15:00:00.000Z,74:97:8E:00:07:1A,,infra,,2,0,?,?,?,False,36,0.0,wpa2,US,CA,Country Club Drive,Escondido,1142,92029,Residential
33.11940384,-117.12744141,Helium Mobile,0,20240530-00000,2024-05-21T00:00:00.000Z,2024-05-30T14:00:00.000Z,2024-05-30T15:00:00.000Z,74:97:8E:00:07:1B,,infra,,2,0,?,?,?,False,1,0.0,wpa2,US,CA,Country Club Drive,Escondido,1110,92029,Residential
40.72456741,-74.10953522,Helium Mobile,0,20240127-00000,2024-01-28T04:00:00.000Z,2024-01-27T21:00:00.000Z,2024-01-27T22:00:00.000Z,74:97:8E:00:07:32,,infra,,2,0,?,?,?,False,36,,wpa2,US,NJ,Hackensack Avenue,,78,07032,Business
40.72455597,-74.10958862,Helium Mobile,0,20240127-00000,2024-01-28T04:00:00.000Z,2024-01-27T21:00:00.000Z,2024-01-27T22:00:00.000Z,74:97:8E:00:07:33,,infra,,2,0,?,?,?,False,1,,wpa2,US,NJ,Hackensack Avenue,,78,07032,Business
41.5104866,-82.94594574,Helium Mobile,0,20240119-00000,2024-01-19T14:00:00.000Z,2024-01-19T07:00:00.000Z,2024-01-19T07:00:00.000Z,74:97:8E:00:07:42,,infra,,2,0,?,?,?,False,132,,wpa2,US,OH,West 3rd Street,,,43452,Residential
41.51046371,-82.94619751,Helium Mobile,0,20240119-00000,2024-01-19T14:00:00.000Z,2024-01-19T07:00:00.000Z,2024-01-19T07:00:00.000Z,74:97:8E:00:07:43,,infra,,2,0,?,?,?,False,11,,wpa2,US,OH,West 3rd Street,,,43452,Residential
34.03374863,-118.14730835,Helium Mobile,0,20240808-00000,2024-08-08T16:00:00.000Z,2024-08-08T11:00:00.000Z,2024-08-08T11:00:00.000Z,74:97:8E:00:07:5B,,infra,,2,0,?,?,?,False,1,0.0,wpa2,US,CA,Pomona Freeway,,,90022:90640,Business
34.06323624,-118.23311615,Helium Mobile,7,20240116-00000,2024-01-16T18:00:00.000Z,2024-08-08T18:00:00.000Z,2024-08-08T20:00:00.000Z,74:97:8E:00:07:7A,,infra,,2,0,?,?,?,False,36,0.0,wpa2,US,CA,North Main Street,Los Angeles,,90012,Residential
34.06346512,-118.2335434,Helium Mobile,7,20240116-00000,2024-01-16T18:00:00.000Z,2024-06-19T01:00:00.000Z,2024-06-19T01:00:00.000Z,74:97:8E:00:07:7B,,infra,,2,0,?,?,?,False,1,0.0,wpa2,US,CA,North Main Street,Los Angeles,,90012,Residential
40.63006592,-112.2959671,Helium Mobile,0,20240802-00000,2024-07-06T00:00:00.000Z,2024-08-03T03:00:00.000Z,2024-08-03T05:00:00.000Z,74:97:8E:00:07:82,,infra,,2,0,?,?,?,False,100,0.0,wpa2,US,UT,North Brienne Way,,,84704,Residential
40.62979889,-112.29595947,Helium Mobile,0,20240802-00000,2024-07-06T00:00:00.000Z,2024-08-03T03:00:00.000Z,2024-08-03T05:00:00.000Z,74:97:8E:00:07:83,,infra,,2,0,?,?,?,False,11,0.0,wpa2,US,UT,North Brienne Way,,,84704,Residential
40.00375748,-75.18741608,Helium Mobile,0,20240707-00000,2024-07-07T20:00:00.000Z,2024-07-07T14:00:00.000Z,2024-07-07T15:00:00.000Z,74:97:8E:00:07:92,,infra,,2,0,?,?,?,False,132,0.0,wpa2,US,PA,Ridge Avenue,Philadelphia,,19129,Business
40.00370789,-75.18738556,Helium Mobile,2,20240614-00000,2024-06-14T11:00:00.000Z,2024-07-07T15:00:00.000Z,2024-07-07T15:00:00.000Z,74:97:8E:00:07:93,,infra,,2,0,?,?,?,False,4,0.0,wpa2,US,PA,Ridge Avenue,Philadelphia,,19129,Business
40.73498154,-74.17325592,Helium Mobile,0,20240112-00000,2024-01-12T15:00:00.000Z,2024-01-12T14:00:00.000Z,2024-01-12T15:00:00.000Z,74:97:8E:00:07:F2,,infra,,2,0,?,?,?,False,36,,wpa2,US,NJ,Branford Place,Newark,,07102,Business
40.73505783,-74.17324066,Helium Mobile,0,20240112-00000,2024-01-12T15:00:00.000Z,2024-01-12T14:00:00.000Z,2024-01-12T15:00:00.000Z,74:97:8E:00:07:F3,,infra,,2,0,?,?,?,False,1,,wpa2,US,NJ,Nutria Street,Newark,,07102,Business
37.51966476,-121.94624329,Helium Mobile,0,20240610-00000,2024-04-09T02:00:00.000Z,2024-06-10T20:00:00.000Z,2024-06-10T20:00:00.000Z,74:97:8E:00:08:33,,infra,,2,0,?,?,?,False,11,0.0,wpa2,US,CA,Osgood Road,Fremont,43230,94538,Residential
37.75131226,-122.23799133,Helium Mobile,0,20240126-00000,2024-01-27T06:00:00.000Z,2024-01-26T22:00:00.000Z,2024-01-27T00:00:00.000Z,74:97:8E:00:08:3A,,infra,,2,0,?,?,?,False,132,,wpa2,US,CA,Otis Drive,,,94502,Residential
37.75136185,-122.23807526,Helium Mobile,0,20240304-00000,2024-03-04T02:00:00.000Z,2024-03-04T00:00:00.000Z,2024-03-04T01:00:00.000Z,74:97:8E:00:08:3B,,infra,,2,0,?,?,?,False,11,0.0,wpa2,US,CA,Otis Drive,,,94502,Business
25.77997971,-80.22377014,Helium Mobile,3,20240516-00000,2024-05-16T14:00:00.000Z,2024-07-08T17:00:00.000Z,2024-07-08T17:00:00.000Z,74:97:8E:00:08:4A,,infra,,2,0,?,?,?,False,132,0.0,wpa2,US,FL,Northwest 7th Street,Miami,1761,33125,Residential
38.66833115,-121.36252594,Helium Mobile,0,20240112-00000,2024-01-12T05:00:00.000Z,2024-01-12T15:00:00.000Z,2024-01-12T18:00:00.000Z,74:97:8E:00:08:92,,infra,,2,0,?,?,?,False,116,,wpa2,US,CA,Palm Avenue,,,95660,Residential
38.66843033,-121.36219788,Helium Mobile,0,20240112-00000,2024-01-12T05:00:00.000Z,2024-01-12T15:00:00.000Z,2024-01-12T18:00:00.000Z,74:97:8E:00:08:93,,infra,,2,0,?,?,?,False,11,,wpa2,US,CA,Hillsdale Boulevard,,,95660,Residential
44.97605896,-93.27095795,Helium Mobile,4,20240202-00000,2024-02-02T22:00:00.000Z,2024-07-11T20:00:00.000Z,2024-07-11T20:00:00.000Z,74:97:8E:00:08:BA,,infra,,2,0,?,?,?,False,36,0.0,wpa2,US,MN,South 7th Street,Minneapolis,109,55402-2368,Residential
44.97597885,-93.27082825,Helium Mobile,4,20240202-00000,2024-02-02T22:00:00.000Z,2024-07-11T20:00:00.000Z,2024-07-11T20:00:00.000Z,74:97:8E:00:08:BB,,infra,,2,0,?,?,?,False,1,0.0,wpa2,US,MN,South 7th Street,Minneapolis,109,55402-2368,Business
39.76188278,-104.98889923,Helium Mobile,0,20240113-00000,2024-01-12T21:00:00.000Z,2024-01-13T07:00:00.000Z,2024-01-13T08:00:00.000Z,74:97:8E:00:09:12,,infra,,2,0,?,?,?,False,52,,wpa2,US,CO,Wewatta Way,Denver,2797,80216,Residential
36.16967392,-115.33253479,Helium Mobile,0,20240202-00000,2024-02-02T18:00:00.000Z,2024-02-02T13:00:00.000Z,2024-02-02T13:00:00.000Z,74:97:8E:00:09:2B,,infra,,2,0,?,?,?,False,11,0.0,wpa2,US,NV,Alta Drive,Las Vegas,,89135-1038,Business
38.91247177,-104.69658661,Helium Mobile,1,20240106-00000,2024-01-06T19:00:00.000Z,2024-01-28T12:00:00.000Z,2024-01-28T15:00:00.000Z,74:97:8E:00:09:5A,,infra,,2,0,?,?,?,False,52,0.0,wpa2,US,CO,Stetson Hills Boulevard,Colorado Springs,,80938,Business
38.91222763,-104.69738007,Helium Mobile,3,20240128-00000,2024-01-28T19:00:00.000Z,2024-08-05T15:00:00.000Z,2024-08-05T18:00:00.000Z,74:97:8E:00:09:5B,,infra,,2,0,?,?,?,False,9,0.0,wpa2,US,CO,Stetson Hills Boulevard,Colorado Springs,,80938,Business
38.9749527,-104.74061584,Helium Mobile,0,20240614-00000,2024-06-14T18:00:00.000Z,2024-06-14T17:00:00.000Z,2024-06-15T03:00:00.000Z,74:97:8E:00:09:9B,,infra,,2,0,?,?,?,False,1,0.0,wpa2,US,CO,Grand Cordera Parkway,Colorado Springs,,80924,Business
37.69068909,-122.13791656,Helium Mobile,0,20240123-00000,2024-01-22T23:00:00.000Z,2024-01-23T00:00:00.000Z,2024-01-23T00:00:00.000Z,74:97:8E:00:09:A2,,infra,,2,0,?,?,?,False,132,,wpa2,US,CA,Nimitz Freeway,,,94579,Business
33.90873337,-117.8838501,Helium Mobile,0,20240305-00000,2024-03-03T01:00:00.000Z,2024-03-05T11:00:00.000Z,2024-03-05T11:00:00.000Z,74:97:8E:00:09:A3,,infra,,2,0,?,?,?,False,11,0.0,wpa2,US,CA,Orange Freeway,,,92821,Business
34.10171127,-118.35951233,Helium Mobile,7,20240104-00000,2024-01-05T01:00:00.000Z,2024-05-05T04:00:00.000Z,2024-05-05T04:00:00.000Z,74:97:8E:00:09:AA,,infra,,2,0,?,?,?,False,116,0.0,wpa2,US,CA,Hollywood Boulevard,Los Angeles,,90046-2549,Residential
34.10167694,-118.35966492,Helium Mobile,7,20240104-00000,2024-01-05T01:00:00.000Z,2024-07-19T18:00:00.000Z,2024-07-20T00:00:00.000Z,74:97:8E:00:09:AB,,infra,,2,0,?,?,?,False,11,0.0,wpa2,US,CA,Hollywood Boulevard,Los Angeles,,90046-2549,Residential
27.93482018,-82.48309326,Helium Mobile,0,20240608-00000,2024-06-08T01:00:00.000Z,2024-06-08T06:00:00.000Z,2024-06-08T06:00:00.000Z,74:97:8E:00:09:BA,,infra,,2,0,?,?,?,False,52,0.0,wpa2,US,FL,South Howard Avenue,Tampa,,33606,Business
27.93469048,-82.48312378,Helium Mobile,0,20240608-00000,2024-06-08T01:00:00.000Z,2024-06-08T06:00:00.000Z,2024-06-08T06:00:00.000Z,74:97:8E:00:09:BB,,infra,,2,0,?,?,?,False,1,0.0,wpa2,US,FL,South Howard Avenue,Tampa,,33606,Business
40.86233139,-74.13893127,Helium Mobile,0,20240122-00000,2024-01-22T02:00:00.000Z,2024-01-22T05:00:00.000Z,2024-01-22T05:00:00.000Z,74:97:8E:00:09:CA,,infra,,2,0,?,?,?,False,132,,wpa2,US,NJ,Paulison Avenue,,,07015,Residential
39.27725983,-74.57366943,Helium Mobile,5,20240403-00000,2024-04-03T21:00:00.000Z,2024-06-13T20:00:00.000Z,2024-06-14T01:00:00.000Z,74:97:8E:00:09:E2,,infra,,2,0,?,?,?,False,100,0.0,wpa2,US,NJ,Ocean Avenue,,,08226,Business
39.27716446,-74.57375336,Helium Mobile,3,20240403-00000,2024-04-03T21:00:00.000Z,2024-06-13T20:00:00.000Z,2024-06-14T01:00:00.000Z,74:97:8E:00:09:E3,,infra,,2,0,?,?,?,False,3,0.0,wpa2,US,NJ,Ocean Avenue,,,08226,Business
35.59208679,-97.60487366,Helium Mobile,5,20240107-00000,2004-05-23T15:00:00.000Z,2024-03-27T04:00:00.000Z,2024-03-27T04:00:00.000Z,74:97:8E:00:0A:12,,infra,,2,0,?,?,?,False,100,0.0,wpa2,US,OK,Old Farm Road,Oklahoma City,,73142,Residential
35.59212875,-97.60493469,Helium Mobile,5,20240107-00000,2024-01-07T15:00:00.000Z,2024-05-23T04:00:00.000Z,2024-05-23T04:00:00.000Z,74:97:8E:00:0A:13,,infra,,2,0,?,?,?,False,11,0.0,wpa2,US,OK,Old Farm Road,Oklahoma City,,73142,Residential
40.58371353,-105.07849884,Helium Mobile,1,20240122-00000,2024-01-23T00:00:00.000Z,2024-02-06T12:00:00.000Z,2024-02-06T13:00:00.000Z,74:97:8E:00:0A:52,,infra,,2,0,?,?,?,False,52,0.0,wpa2,US,CO,West Olive Street,Fort Collins,121,80524,Business
40.58296585,-105.07805634,Helium Mobile,4,20240110-00000,2024-01-11T00:00:00.000Z,2024-03-30T17:00:00.000Z,2024-03-30T21:00:00.000Z,74:97:8E:00:0A:53,,infra,,2,0,?,?,?,False,1,0.0,wpa2,US,CO,West Magnolia Street,Fort Collins,120,80524,Business
34.93715668,-82.27272797,Helium Mobile,4,20240309-00000,2024-03-09T19:00:00.000Z,2024-07-21T19:00:00.000Z,2024-07-22T12:00:00.000Z,74:97:8E:00:0A:6A,,infra,,2,0,?,?,?,False,116,0.0,wpa2,US,SC,West Wade Hampton Boulevard,Greer,,29650,Residential
34.93734741,-82.2729187,Helium Mobile,5,20240309-00000,2024-03-09T19:00:00.000Z,2024-07-21T23:00:00.000Z,2024-07-22T12:00:00.000Z,74:97:8E:00:0A:6B,,infra,,2,0,?,?,?,False,11,0.0,wpa2,US,SC,West Wade Hampton Boulevard,Greer,1494,29650,Business
40.87176514,-81.40092468,Helium Mobile,0,20240229-00000,2024-02-08T06:00:00.000Z,2024-02-29T16:00:00.000Z,2024-03-01T03:00:00.000Z,74:97:8E:00:0A:9A,,infra,,2,0,?,?,?,False,149,0.0,wpa2,US,OH,Bachtel Street Southwest,,,44720,Business
40.87174606,-81.40088654,Helium Mobile,0,20240229-00000,2024-02-08T06:00:00.000Z,2024-02-29T16:00:00.000Z,2024-03-01T03:00:00.000Z,74:97:8E:00:0A:9B,,infra,,2,0,?,?,?,False,11,0.0,wpa2,US,OH,Bachtel Street Southwest,,,44720,Business
42.48301315,-71.08663177,Helium Mobile,0,20240703-00000,2024-07-03T22:00:00.000Z,2024-07-03T17:00:00.000Z,2024-07-03T19:00:00.000Z,74:97:8E:00:0A:D2,,infra,,2,0,?,?,?,False,100,0.0,wpa2,US,MA,Blueberry Lane,,2,02180,Residential
42.48291016,-71.08662415,Helium Mobile,0,20240703-00000,2024-07-03T22:00:00.000Z,2024-07-03T17:00:00.000Z,2024-07-03T19:00:00.000Z,74:97:8E:00:0A:D3,,infra,,2,0,?,?,?,False,6,0.0,wpa2,US,MA,Blueberry Lane,,2,02180,Residential
33.92938614,-118.10242462,Helium Mobile,2,20240506-00000,2024-05-06T13:00:00.000Z,2024-06-27T07:00:00.000Z,2024-06-27T08:00:00.000Z,74:97:8E:00:0B:0A,,infra,,2,0,?,?,?,False,116,0.0,wpa2,US,CA,San Gabriel River Freeway,Norwalk,,90241-5204,Business
33.92932129,-118.10253143,Helium Mobile,7,20240225-00000,2024-02-25T22:00:00.000Z,2024-07-18T16:00:00.000Z,2024-07-18T18:00:00.000Z,74:97:8E:00:0B:0B,,infra,,2,0,?,?,?,False,11,0.0,wpa2,US,CA,San Gabriel River Freeway,Norwalk,,90241-5204,Business
41.18246078,-111.98256683,Helium Mobile,6,20240206-00000,2024-02-06T23:00:00.000Z,2024-07-28T16:00:00.000Z,2024-07-28T17:00:00.000Z,74:97:8E:00:0B:2A,,infra,,2,0,?,?,?,False,116,0.0,wpa2,US,UT,South 300 West,Riverdale,,84408,Residential
41.18239212,-111.98257446,Helium Mobile,6,20240206-00000,2024-02-06T23:00:00.000Z,2024-07-28T16:00:00.000Z,2024-07-28T17:00:00.000Z,74:97:8E:00:0B:2B,,infra,,2,0,?,?,?,False,1,0.0,wpa2,US,UT,South 300 West,Riverdale,,84408,Residential
40.68511963,-73.98241425,Helium Mobile,0,20240301-00000,2024-03-01T21:00:00.000Z,2024-03-01T14:00:00.000Z,2024-03-01T23:00:00.000Z,74:97:8E:00:0B:5A,,infra,,2,0,?,?,?,False,52,0.0,wpa2,US,NY,Pacific Street,City of New York,,11217,Residential
42.46218109,-71.14272308,Helium Mobile,2,20240101-00000,2023-12-31T23:00:00.000Z,2024-07-27T13:00:00.000Z,2024-07-27T14:00:00.000Z,74:97:8E:00:0B:62,,infra,,2,0,?,?,?,False,116,0.0,wpa2,US,MA,Main Street,,905,01890,Residential
42.46209717,-71.14254761,Helium Mobile,2,20240101-00000,2023-12-31T23:00:00.000Z,2024-07-27T13:00:00.000Z,2024-07-27T14:00:00.000Z,74:97:8E:00:0B:63,,infra,,2,0,?,?,?,False,11,0.0,wpa2,US,MA,Main Street,,905,01890,Residential
41.84026337,-87.62350464,Helium Mobile,0,20240420-00000,2024-04-20T16:00:00.000Z,2024-04-20T10:00:00.000Z,2024-04-20T10:00:00.000Z,74:97:8E:00:0B:73,,infra,,2,0,?,?,?,False,6,0.0,wpa2,US,IL,South Michigan Avenue,Chicago,,60616,Residential
34.00252151,-118.28279877,Helium Mobile,2,20240211-00000,2024-02-12T00:00:00.000Z,2024-04-18T09:00:00.000Z,2024-04-18T10:00:00.000Z,74:97:8E:00:0B:82,,infra,,2,0,?,?,?,False,116,0.0,wpa2,US,CA,South Figueroa Street,Los Angeles,,90037,Business
34.00271988,-118.28272247,Helium Mobile,2,20240211-00000,2024-02-12T02:00:00.000Z,2024-04-18T09:00:00.000Z,2024-04-18T10:00:00.000Z,74:97:8E:00:0B:83,,infra,,2,0,?,?,?,False,3,0.0,wpa2,US,CA,South Figueroa Street,Los Angeles,,90037,Business
25.84295273,-80.19261932,Helium Mobile,0,20240219-00000,2024-02-20T04:00:00.000Z,2024-02-19T22:00:00.000Z,2024-02-19T22:00:00.000Z,74:97:8E:00:0B:9B,,infra,,2,0,?,?,?,False,11,0.0,wpa2,US,FL,Northeast 2nd Avenue,Miami,7350,33138,Residential
42.48288345,-71.08654785,Helium Mobile,0,20240703-00000,2024-07-03T22:00:00.000Z,2024-07-03T17:00:00.000Z,2024-07-03T19:00:00.000Z,74:97:8E:00:0B:D2,,infra,,2,0,?,?,?,False,36,0.0,wpa2,US,MA,Blueberry Lane,,2,02180,Residential
42.48295975,-71.08661652,Helium Mobile,0,20240703-00000,2024-07-03T22:00:00.000Z,2024-07-03T17:00:00.000Z,2024-07-03T19:00:00.000Z,74:97:8E:00:0B:D3,,infra,,2,0,?,?,?,False,9,0.0,wpa2,US,MA,Blueberry Lane,,2,02180,Residential
33.00151062,-96.64376831,Helium Mobile,7,20240117-00000,2024-01-17T02:00:00.000Z,2024-08-09T16:00:00.000Z,2024-08-09T18:00:00.000Z,74:97:8E:00:0B:EA,,infra,,2,0,?,?,?,False,100,0.0,wpa2,US,TX,East Renner Road,Lucas,,75094,Business
33.00149918,-96.64396667,Helium Mobile,7,20240203-00000,2024-02-03T19:00:00.000Z,2024-08-09T16:00:00.000Z,2024-08-09T18:00:00.000Z,74:97:8E:00:0B:EB,,infra,,2,0,?,?,?,False,1,0.0,wpa2,US,TX,North Star Road,Lucas,,75094,Business
43.62282944,-83.87495422,Helium Mobile,1,20240416-00000,2024-04-16T22:00:00.000Z,2024-04-29T11:00:00.000Z,2024-04-29T12:00:00.000Z,74:97:8E:00:0C:0B,,infra,,2,0,?,?,?,False,11,0.0,wpa2,US,MI,Harry S Truman Parkway,,,48708,Business
39.03246689,-94.34996796,Helium Mobile,2,20240308-00000,2024-03-09T04:00:00.000Z,2024-03-14T22:00:00.000Z,2024-03-14T23:00:00.000Z,74:97:8E:00:0C:4B,,infra,,2,0,?,?,?,False,11,0.0,wpa2,US,MO,South Little Blue Parkway,Independence,,64057,Residential
33.9964447,-118.47264099,Helium Mobile,0,20240310-00000,2024-03-10T20:00:00.000Z,2024-07-11T21:00:00.000Z,2024-07-11T22:00:00.000Z,74:97:8E:00:0D:12,,infra,,2,0,?,?,?,False,116,0.0,wpa2,US,CA,Sunset Avenue,Los Angeles,,90291,Residential
34.03659439,-118.40751648,Helium Mobile,2,20240310-00000,2024-03-10T20:00:00.000Z,2024-07-11T21:00:00.000Z,2024-07-11T22:00:00.000Z,74:97:8E:00:0D:13,,infra,,2,0,?,?,?,False,8,0.0,wpa2,US,CA,Cheviot Drive,Los Angeles,,90064,Residential
41.93106461,-88.76389313,Helium Mobile,2,20240413-00000,2024-04-14T01:00:00.000Z,2024-05-26T14:00:00.000Z,2024-05-26T15:00:00.000Z,74:97:8E:00:0D:23,,infra,,2,0,?,?,?,False,11,0.0,wpa2,US,IL,West Lincoln Highway,,,60115,Residential
34.1981163,-118.18643188,Helium Mobile,2,20240119-00000,2024-01-19T22:00:00.000Z,2024-07-29T17:00:00.000Z,2024-07-29T18:00:00.000Z,74:97:8E:00:0D:32,,infra,,2,0,?,?,?,False,36,0.0,wpa2,US,CA,Georgian Road,,,91011,Residential
34.1982193,-118.1858139,Helium Mobile,2,20240119-00000,2024-01-19T22:00:00.000Z,2024-07-29T17:00:00.000Z,2024-07-29T18:00:00.000Z,74:97:8E:00:0D:33,,infra,,2,0,?,?,?,False,11,0.0,wpa2,US,CA,Crown Avenue,,4543,91011,Business
33.61080551,-111.87722015,Helium Mobile,1,20240326-00000,2024-03-26T14:00:00.000Z,2024-05-29T14:00:00.000Z,2024-05-29T14:00:00.000Z,74:97:8E:00:0D:3A,,infra,,2,0,?,?,?,False,52,0.0,wpa2,US,AZ,East Thunderbird Road,Scottsdale,,85260,Other
33.53110886,-111.92579651,Helium Mobile,2,20240120-00000,2024-01-18T14:00:00.000Z,2024-01-30T10:00:00.000Z,2024-05-29T14:00:00.000Z,74:97:8E:00:0D:3B,,infra,,2,0,?,?,?,False,11,0.0,wpa2,US,AZ,North Scottsdale Road,Scottsdale,6300,85253,Business
36.0007019,-94.17401123,Helium Mobile,0,20240608-00000,2024-06-09T00:00:00.000Z,2024-06-08T17:00:00.000Z,2024-06-08T18:00:00.000Z,74:97:8E:00:0D:83,,infra,,2,0,?,?,?,False,11,0.0,wpa2,US,AR,North Main Avenue,Fayetteville,432,72701,Residential
40.5556488,-74.34738159,Helium Mobile,0,20240405-00000,2024-04-05T20:00:00.000Z,2024-04-05T16:00:00.000Z,2024-04-05T18:00:00.000Z,74:97:8E:00:0D:8A,,infra,,2,0,?,?,?,False,116,0.0,wpa2,US,NJ,Lincoln Highway,,2,08820-3924,Business
40.55574417,-74.34762573,Helium Mobile,0,20240405-00000,2024-04-05T20:00:00.000Z,2024-04-05T16:00:00.000Z,2024-04-05T18:00:00.000Z,74:97:8E:00:0D:8B,,infra,,2,0,?,?,?,False,11,0.0,wpa2,US,NJ,Lincoln Highway,,2,08820-3924,Business
39.76073074,-105.01583862,Helium Mobile,5,20240221-00000,2024-02-21T17:00:00.000Z,2024-04-05T19:00:00.000Z,2024-04-05T23:00:00.000Z,74:97:8E:00:0D:CA,,infra,,2,0,?,?,?,False,100,0.0,wpa2,US,CO,Zuni Street,Denver,3054,80211,Residential
39.76079559,-105.01560211,Helium Mobile,0,20240303-00000,2024-03-03T00:00:00.000Z,2024-03-03T17:00:00.000Z,2024-03-03T20:00:00.000Z,74:97:8E:00:0D:CB,,infra,,2,0,?,?,?,False,11,0.0,wpa2,US,CO,West 31st Avenue,Denver,2330,80211,Residential
40.90929413,-73.78546143,Helium Mobile,0,20240522-00000,2024-05-22T21:00:00.000Z,2024-05-22T15:00:00.000Z,2024-05-22T16:00:00.000Z,74:97:8E:00:0D:F2,,infra,,2,0,?,?,?,False,100,0.0,wpa2,US,NY,Relyea Place,City of New Rochelle,,10801,Business
39.73324966,-104.97180939,Helium Mobile,0,20240104-00000,2024-01-04T20:00:00.000Z,2024-01-04T12:00:00.000Z,2024-01-04T12:00:00.000Z,74:97:8E:00:0D:FA,,infra,,2,0,?,?,?,False,132,,wpa2,US,CO,Marion Street,Denver,1056,80218,Residential
26.69794083,-80.05774689,Helium Mobile,0,20240215-00000,2024-02-16T04:00:00.000Z,2024-02-15T21:00:00.000Z,2024-02-15T21:00:00.000Z,74:97:8E:00:0E:0A,,infra,,2,0,?,?,?,False,132,0.0,wpa2,US,FL,Park Place,West Palm Beach,,33402,Residential
26.69817924,-80.05754089,Helium Mobile,0,20240215-00000,2024-02-16T04:00:00.000Z,2024-02-15T21:00:00.000Z,2024-02-15T21:00:00.000Z,74:97:8E:00:0E:0B,,infra,,2,0,?,?,?,False,11,0.0,wpa2,US,FL,Park Place,West Palm Beach,,33402,Residential
37.87918854,-122.2830658,Helium Mobile,0,20240217-00000,2024-02-17T05:00:00.000Z,2024-02-17T23:00:00.000Z,2024-02-18T01:00:00.000Z,74:97:8E:00:0E:2A,,infra,,2,0,?,?,?,False,100,0.0,wpa2,US,CA,Sacramento Street,Berkeley,1421,94702,Residential
37.87924194,-122.28308868,Helium Mobile,0,20240209-00000,2024-02-10T00:00:00.000Z,2024-02-09T21:00:00.000Z,2024-02-09T21:00:00.000Z,74:97:8E:00:0E:2B,,infra,,2,0,?,?,?,False,10,0.0,wpa2,US,CA,Sacramento Street,Berkeley,1421,94702,Residential
44.95353699,-93.27654266,Helium Mobile,2,20240324-00000,2024-03-25T01:00:00.000Z,2024-06-07T15:00:00.000Z,2024-06-07T16:00:00.000Z,74:97:8E:00:0E:42,,infra,,2,0,?,?,?,False,116,0.0,wpa2,US,MN,1st Avenue South,Minneapolis,2711,55408,Residential
44.95373535,-93.27662659,Helium Mobile,0,20240324-00000,2024-03-25T01:00:00.000Z,2024-03-24T20:00:00.000Z,2024-03-24T22:00:00.000Z,74:97:8E:00:0E:43,,infra,,2,0,?,?,?,False,11,0.0,wpa2,US,MN,East 27th Street,Minneapolis,17,55408,Residential
38.96992111,-94.44825745,Helium Mobile,0,20240313-00000,2024-03-14T04:00:00.000Z,2024-03-13T22:00:00.000Z,2024-03-13T22:00:00.000Z,74:97:8E:00:0E:4B,,infra,,2,0,?,?,?,False,10,0.0,wpa2,US,MO,Pershing Road,Raytown,,64138,Residential
37.710392,-122.44373322,Helium Mobile,0,20240120-00000,2024-01-21T00:00:00.000Z,2024-01-20T21:00:00.000Z,2024-01-20T21:00:00.000Z,74:97:8E:00:0E:62,,infra,,2,0,?,?,?,False,100,,wpa2,US,CA,Brunswick Street,San Francisco,517,94112,Residential
37.71043015,-122.4436264,Helium Mobile,0,20240120-00000,2024-01-21T00:00:00.000Z,2024-01-20T21:00:00.000Z,2024-01-20T21:00:00.000Z,74:97:8E:00:0E:63,,infra,,2,0,?,?,?,False,11,,wpa2,US,CA,Brunswick Street,San Francisco,515,94112,Residential
25.79870987,-80.19923401,Helium Mobile,2,20240419-00000,2024-04-19T15:00:00.000Z,2024-04-21T14:00:00.000Z,2024-04-21T16:00:00.000Z,74:97:8E:00:0E:92,,infra,,2,0,?,?,?,False,116,0.0,wpa2,US,FL,Northwest 22nd Terrace,Miami,210,33127,Residential
25.79870605,-80.19923401,Helium Mobile,2,20240419-00000,2024-04-19T15:00:00.000Z,2024-04-21T14:00:00.000Z,2024-04-21T16:00:00.000Z,74:97:8E:00:0E:93,,infra,,2,0,?,?,?,False,6,0.0,wpa2,US,FL,Northwest 22nd Terrace,Miami,210,33127,Residential
40.84670639,-72.90035248,Helium Mobile,0,20240226-00000,2024-02-26T19:00:00.000Z,2024-02-26T14:00:00.000Z,2024-02-26T14:00:00.000Z,74:97:8E:00:0E:DA,,infra,,2,0,?,?,?,False,132,0.0,wpa2,US,NY,Cornell Loop,,,11980,Residential
40.84674072,-72.89994049,Helium Mobile,0,20240226-00000,2024-02-26T19:00:00.000Z,2024-02-26T14:00:00.000Z,2024-02-26T14:00:00.000Z,74:97:8E:00:0E:DB,,infra,,2,0,?,?,?,False,11,0.0,wpa2,US,NY,Meadows Boulevard East,,,11980,Residential
39.54351807,-119.81772614,Helium Mobile,2,20240125-00000,2024-01-26T01:00:00.000Z,2024-02-09T15:00:00.000Z,2024-02-09T15:00:00.000Z,74:97:8E:00:0F:3A,,infra,,2,0,?,?,?,False,116,0.0,wpa2,US,NV,North Virginia Street,Reno,,89557,Residential
39.54315567,-119.81762695,Helium Mobile,1,20240208-00000,2024-02-08T23:00:00.000Z,2024-02-09T15:00:00.000Z,2024-02-09T15:00:00.000Z,74:97:8E:00:0F:3B,,infra,,2,0,?,?,?,False,6,0.0,wpa2,US,NV,North Virginia Street,Reno,1431,89503,Residential
42.32793045,-122.86690521,Helium Mobile,4,20240719-00000,2024-07-19T20:00:00.000Z,2024-07-25T12:00:00.000Z,2024-07-25T23:00:00.000Z,74:97:8E:00:0F:42,,infra,,2,0,?,?,?,False,116,0.0,wpa2,US,OR,East Main Street,Medford,,97501,Business
42.32784653,-122.86621857,Helium Mobile,6,20240128-00000,2024-01-27T23:00:00.000Z,2024-07-25T12:00:00.000Z,2024-07-25T23:00:00.000Z,74:97:8E:00:0F:43,,infra,,2,0,?,?,?,False,11,0.0,wpa2,US,OR,East Main Street,Medford,,97501,Business
34.12602997,-77.89985657,Helium Mobile,0,20240610-00000,2024-06-09T23:00:00.000Z,2024-06-10T13:00:00.000Z,2024-06-10T13:00:00.000Z,74:97:8E:00:0F:93,,infra,,2,0,?,?,?,False,1,0.0,wpa2,US,NC,Sanders Drive,,,28412,Business
34.16861343,-118.34494781,Helium Mobile,3,20240205-00000,2024-02-05T14:00:00.000Z,2024-08-10T15:00:00.000Z,2024-08-10T16:00:00.000Z,74:97:8E:00:0F:C2,,infra,,2,0,?,?,?,False,149,0.0,wpa2,US,CA,West Magnolia Boulevard,Burbank,3435,91505,Business
34.16848373,-118.34527588,Helium Mobile,2,20240807-00000,2024-08-07T14:00:00.000Z,2024-08-10T15:00:00.000Z,2024-08-10T16:00:00.000Z,74:97:8E:00:0F:C3,,infra,,2,0,?,?,?,False,6,0.0,wpa2,US,CA,West Magnolia Boulevard,Burbank,,91505,Business
32.75260162,-117.22959137,Helium Mobile,0,20240218-00000,2024-02-18T08:00:00.000Z,2024-02-18T08:00:00.000Z,2024-02-18T08:00:00.000Z,74:97:8E:00:0F:D2,,infra,,2,0,?,?,?,False,36,0.0,wpa2,US,CA,West Point Loma Boulevard,San Diego,4363,92107,Residential
26.65162468,-80.22566223,Helium Mobile,1,20240422-00000,2024-04-15T21:00:00.000Z,2024-04-22T08:00:00.000Z,2024-04-22T09:00:00.000Z,74:97:8E:00:10:23,,infra,,2,0,?,?,?,False,11,0.0,wpa2,US,FL,Forest Hill Boulevard,,,33414-9372,Residential
41.59222412,-83.61387634,Helium Mobile,3,20240217-00000,2024-02-17T13:00:00.000Z,2024-03-17T15:00:00.000Z,2024-07-21T15:00:00.000Z,74:97:8E:00:10:3B,,infra,,2,0,?,?,?,False,11,0.0,wpa2,US,OH,South Detroit Avenue,Toledo,,43614,Residential
26.63706207,-80.24923706,Helium Mobile,0,20240422-00000,2024-03-24T00:00:00.000Z,2024-04-22T07:00:00.000Z,2024-04-22T08:00:00.000Z,74:97:8E:00:10:6B,,infra,,2,0,?,?,?,False,1,0.0,wpa2,US,FL,Pierson Road,,,33414,Residential
34.14783478,-118.38779449,Helium Mobile,0,20240724-00000,2024-07-24T21:00:00.000Z,2024-07-24T16:00:00.000Z,2024-07-25T10:00:00.000Z,74:97:8E:00:10:8A,,infra,,2,0,?,?,?,False,100,0.0,wpa2,US,CA,Colfax Avenue,Los Angeles,,91604,Residential
34.14770508,-118.38780975,Helium Mobile,0,20240626-00000,2024-06-26T17:00:00.000Z,2024-06-26T17:00:00.000Z,2024-06-26T17:00:00.000Z,74:97:8E:00:10:8B,,infra,,2,0,?,?,?,False,6,0.0,wpa2,US,CA,Colfax Avenue,Los Angeles,,91604,Residential
36.17450333,-115.25917053,Helium Mobile,1,20240412-00000,2024-04-12T18:00:00.000Z,2024-05-10T20:00:00.000Z,2024-05-10T20:00:00.000Z,74:97:8E:00:10:A2,,infra,,2,0,?,?,?,False,52,0.0,wpa2,US,NV,Westcliff Drive,Las Vegas,,89145,Business
36.1745491,-115.2592392,Helium Mobile,3,20240402-00000,2024-04-02T18:00:00.000Z,2024-05-27T08:00:00.000Z,2024-05-27T08:00:00.000Z,74:97:8E:00:10:A3,,infra,,2,0,?,?,?,False,1,0.0,wpa2,US,NV,Cocanut Grove Court,Las Vegas,,89128,Residential
42.97467041,-83.76943207,Helium Mobile,0,20240305-00000,2024-03-05T20:00:00.000Z,2024-03-05T12:00:00.000Z,2024-03-05T14:00:00.000Z,74:97:8E:00:10:E3,,infra,,2,0,?,?,?,False,11,0.0,wpa2,US,MI,Radcliffe Avenue,,,48507,Residential
40.55124664,-74.13466644,Helium Mobile,0,20240112-00000,2024-01-12T16:00:00.000Z,2024-01-12T14:00:00.000Z,2024-01-12T15:00:00.000Z,74:97:8E:00:10:EA,,infra,,2,0,?,?,?,False,36,,wpa2,US,NY,Hylan Boulevard,City of New York,3535,10308,Residential
40.55124664,-74.13466644,Helium Mobile,0,20240112-00000,2024-01-12T16:00:00.000Z,2024-01-12T14:00:00.000Z,2024-01-12T15:00:00.000Z,74:97:8E:00:10:EB,,infra,,2,0,?,?,?,False,11,,wpa2,US,NY,Hylan Boulevard,City of New York,3535,10308,Residential
26.18591881,-80.21586609,Helium Mobile,0,20240224-00000,2024-02-24T05:00:00.000Z,2024-02-24T10:00:00.000Z,2024-02-24T12:00:00.000Z,74:97:8E:00:11:22,,infra,,2,0,?,?,?,False,149,0.0,wpa2,US,FL,Florida's Turnpike,,,33319,Business
26.18603897,-80.2158432,Helium Mobile,7,20240131-00000,2024-01-31T20:00:00.000Z,2024-08-08T12:00:00.000Z,2024-08-08T14:00:00.000Z,74:97:8E:00:11:23,,infra,,2,0,?,?,?,False,11,0.0,wpa2,US,FL,Florida's Turnpike,,,33319,Business
27.79075432,-82.34268951,Helium Mobile,3,20240114-00000,2024-01-14T16:00:00.000Z,2024-06-29T12:00:00.000Z,2024-06-29T13:00:00.000Z,74:97:8E:00:11:3A,,infra,,2,0,?,?,?,False,149,0.0,wpa2,US,FL,Lincoln Road,,,33569,Business
27.79086494,-82.3428421,Helium Mobile,5,20240114-00000,2024-01-14T16:00:00.000Z,2024-06-29T12:00:00.000Z,2024-06-29T13:00:00.000Z,74:97:8E:00:11:3B,,infra,,2,0,?,?,?,False,11,0.0,wpa2,US,FL,Big Bend Road,,,33579,Business
25.78294182,-80.18836975,Helium Mobile,4,20240223-00000,2024-02-23T14:00:00.000Z,2024-03-14T15:00:00.000Z,2024-03-14T17:00:00.000Z,74:97:8E:00:11:6A,,infra,,2,0,?,?,?,False,132,0.0,wpa2,US,FL,Biscayne Boulevard,Miami,1075,33132,Business
25.78261757,-80.18894196,Helium Mobile,0,20240224-00000,2024-02-23T15:00:00.000Z,2024-02-24T10:00:00.000Z,2024-02-24T12:00:00.000Z,74:97:8E:00:11:6B,,infra,,2,0,?,?,?,False,4,0.0,wpa2,US,FL,Biscayne Boulevard,Miami,,33132,Business
26.70685387,-80.04837799,Helium Mobile,0,20240210-00000,2024-02-11T02:00:00.000Z,2024-02-10T22:00:00.000Z,2024-02-10T22:00:00.000Z,74:97:8E:00:11:92,,infra,,2,0,?,?,?,False,149,0.0,wpa2,US,FL,South Flagler Drive,West Palm Beach,,33401,Residential
26.7077961,-80.05037689,Helium Mobile,0,20240210-00000,2024-02-11T02:00:00.000Z,2024-02-10T22:00:00.000Z,2024-02-10T22:00:00.000Z,74:97:8E:00:11:93,,infra,,2,0,?,?,?,False,1,0.0,wpa2,US,FL,Chase Street,West Palm Beach,,33402,Residential
33.41942596,-86.77274323,Helium Mobile,0,20240720-00000,2024-07-20T22:00:00.000Z,2024-07-20T15:00:00.000Z,2024-07-21T03:00:00.000Z,74:97:8E:00:11:CA,,infra,,2,0,?,?,?,False,100,0.0,wpa2,US,AL,Rocky Ridge Road,,,35216,Residential
33.41928101,-86.77278137,Helium Mobile,0,20240720-00000,2024-07-20T22:00:00.000Z,2024-07-20T15:00:00.000Z,2024-07-21T03:00:00.000Z,74:97:8E:00:11:CB,,infra,,2,0,?,?,?,False,6,0.0,wpa2,US,AL,Rocky Ridge Road,,,35216,Residential
34.57958221,-118.11521912,Helium Mobile,0,20240721-00000,2024-07-13T03:00:00.000Z,2024-07-21T15:00:00.000Z,2024-07-22T07:00:00.000Z,74:97:8E:00:11:EB,,infra,,2,0,?,?,?,False,6,0.0,wpa2,US,CA,East Palmdale Boulevard,Palmdale,,93550,Residential
30.17297173,-97.73036194,Helium Mobile,1,20240213-00000,2024-02-13T21:00:00.000Z,2024-02-14T09:00:00.000Z,2024-02-14T09:00:00.000Z,74:97:8E:00:11:F2,,infra,,2,0,?,?,?,False,116,0.0,wpa2,US,TX,Branrust Drive,Austin,,78744,Residential
30.17295647,-97.73032379,Helium Mobile,1,20240213-00000,2024-02-13T21:00:00.000Z,2024-02-14T09:00:00.000Z,2024-02-14T09:00:00.000Z,74:97:8E:00:11:F3,,infra,,2,0,?,?,?,False,6,0.0,wpa2,US,TX,Branrust Drive,Austin,,78744,Residential
40.8229866,-73.95578766,Helium Mobile,2,20240507-00000,2024-05-08T02:00:00.000Z,2024-05-23T18:00:00.000Z,2024-05-23T19:00:00.000Z,74:97:8E:00:12:12,,infra,,2,0,?,?,?,False,100,0.0,wpa2,US,NY,Riverside Drive,City of New York,,10031,Business
40.82302475,-73.95575714,Helium Mobile,0,20240523-00000,2024-05-23T22:00:00.000Z,2024-05-23T18:00:00.000Z,2024-05-23T18:00:00.000Z,74:97:8E:00:12:13,,infra,,2,0,?,?,?,False,1,0.0,wpa2,US,NY,Riverside Drive,City of New York,,10031,Business
33.41942596,-86.77274323,Helium Mobile,0,20240720-00000,2024-07-20T22:00:00.000Z,2024-07-20T15:00:00.000Z,2024-07-21T03:00:00.000Z,74:97:8E:00:12:22,,infra,,2,0,?,?,?,False,100,0.0,wpa2,US,AL,Rocky Ridge Road,,,35216,Residential
33.41928101,-86.77278137,Helium Mobile,0,20240720-00000,2024-07-20T22:00:00.000Z,2024-07-20T15:00:00.000Z,2024-07-21T03:00:00.000Z,74:97:8E:00:12:23,,infra,,2,0,?,?,?,False,6,0.0,wpa2,US,AL,Rocky Ridge Road,,,35216,Residential
39.96119308,-76.68136597,Helium Mobile,4,20240411-00000,2024-04-11T20:00:00.000Z,2024-07-14T13:00:00.000Z,2024-07-14T14:00:00.000Z,74:97:8E:00:12:8A,,infra,,2,0,?,?,?,False,132,0.0,wpa2,US,PA,Haines Road,Springettsbury Township,990,17402,Residential
39.96094131,-76.68136597,Helium Mobile,6,20240109-00000,2024-01-08T18:00:00.000Z,2024-07-15T05:00:00.000Z,2024-07-15T05:00:00.000Z,74:97:8E:00:12:8B,,infra,,2,0,?,?,?,False,1,0.0,wpa2,US,PA,Haines Road,Springettsbury Township,992,17402,Residential
37.38812256,-122.15689087,Helium Mobile,0,20240322-00000,2024-03-23T04:00:00.000Z,2024-03-22T22:00:00.000Z,2024-03-23T00:00:00.000Z,74:97:8E:00:12:93,,infra,,2,0,?,?,?,False,1,0.0,wpa2,US,CA,Junipero Serra Freeway,,,94022-1919,Business
33.00777817,-117.09474945,Helium Mobile,0,20240522-00000,2024-05-04T21:00:00.000Z,2024-05-22T17:00:00.000Z,2024-05-22T19:00:00.000Z,74:97:8E:00:12:D3,,infra,,2,0,?,?,?,False,1,0.0,wpa2,US,CA,Camino del Norte,San Diego,,92127,Business
26.10321999,-80.18154907,Helium Mobile,2,20240404-00000,2024-04-04T07:00:00.000Z,2024-06-02T15:00:00.000Z,2024-06-02T16:00:00.000Z,74:97:8E:00:13:22,,infra,,2,0,?,?,?,False,36,0.0,wpa2,US,FL,Southwest 14th Street,Fort Lauderdale,,33312,Residential
26.10319901,-80.18174744,Helium Mobile,2,20240404-00000,2024-04-04T07:00:00.000Z,2024-06-02T15:00:00.000Z,2024-06-02T16:00:00.000Z,74:97:8E:00:13:23,,infra,,2,0,?,?,?,False,1,0.0,wpa2,US,FL,Southwest 14th Street,Fort Lauderdale,,33312,Residential
30.50877953,-97.67821503,Helium Mobile,2,20240324-00000,2024-03-24T19:00:00.000Z,2024-06-09T17:00:00.000Z,2024-06-09T21:00:00.000Z,74:97:8E:00:13:3A,,infra,,2,0,?,?,?,False,100,0.0,wpa2,US,TX,East Main Street,Round Rock,112,78664,Business
30.50878906,-97.67812347,Helium Mobile,1,20240324-00000,2024-03-24T19:00:00.000Z,2024-06-09T17:00:00.000Z,2024-06-09T21:00:00.000Z,74:97:8E:00:13:3B,,infra,,2,0,?,?,?,False,11,0.0,wpa2,US,TX,East Main Street,Round Rock,114,78664,Business
33.35495758,-111.84187317,Helium Mobile,6,20240128-00000,2024-01-28T17:00:00.000Z,2024-07-21T11:00:00.000Z,2024-07-22T00:00:00.000Z,74:97:8E:00:13:5A,,infra,,2,0,?,?,?,False,100,0.0,wpa2,US,AZ,North Arizona Avenue,Chandler,,85225,Business
33.35494614,-111.84186554,Helium Mobile,7,20240214-00000,2024-02-12T21:00:00.000Z,2024-07-21T11:00:00.000Z,2024-07-22T00:00:00.000Z,74:97:8E:00:13:5B,,infra,,2,0,?,?,?,False,11,0.0,wpa2,US,AZ,North Arizona Avenue,Chandler,,85225,Business
40.14028168,-120.13853455,Helium Mobile,0,20240119-00000,2024-01-19T18:00:00.000Z,2024-01-19T13:00:00.000Z,2024-01-19T13:00:00.000Z,74:97:8E:00:13:6A,,infra,,2,0,?,?,?,False,116,,wpa2,US,CA,Tahoe Avenue,,,96113,Residential
40.14025879,-120.13851929,Helium Mobile,0,20240119-00000,2024-01-19T18:00:00.000Z,2024-01-19T13:00:00.000Z,2024-01-19T13:00:00.000Z,74:97:8E:00:13:6B,,infra,,2,0,?,?,?,False,1,,wpa2,US,CA,Tahoe Avenue,,,96113,Residential
32.78622437,-79.98029327,Helium Mobile,6,20240220-00000,2024-02-20T12:00:00.000Z,2024-07-12T13:00:00.000Z,2024-08-09T15:00:00.000Z,74:97:8E:00:14:12,,infra,,2,0,?,?,?,False,149,0.0,wpa2,US,SC,Saint Andrews Boulevard,Charleston,,29409,Business
32.78542709,-79.97916412,Helium Mobile,5,20240220-00000,2024-02-20T12:00:00.000Z,2024-08-09T14:00:00.000Z,2024-08-09T15:00:00.000Z,74:97:8E:00:14:13,,infra,,2,0,?,?,?,False,1,0.0,wpa2,US,SC,Saint Andrews Boulevard,Charleston,,29409,Residential
47.22146606,-122.34830475,Helium Mobile,0,20240601-00000,2024-06-02T05:00:00.000Z,2024-06-01T23:00:00.000Z,2024-06-01T23:00:00.000Z,74:97:8E:00:14:1A,,infra,,2,0,?,?,?,False,149,0.0,wpa2,US,WA,39th Street East,,,98424-1993,Residential
47.22148132,-122.34820557,Helium Mobile,0,20240601-00000,2024-06-02T05:00:00.000Z,2024-06-01T23:00:00.000Z,2024-06-01T23:00:00.000Z,74:97:8E:00:14:1B,,infra,,2,0,?,?,?,False,11,0.0,wpa2,US,WA,39th Street East,,,98424-1993,Residential
40.75070953,-73.99597168,Helium Mobile,7,20240127-00000,2024-01-27T18:00:00.000Z,2024-07-09T21:00:00.000Z,2024-07-09T23:00:00.000Z,74:97:8E:00:14:2A,,infra,,2,0,?,?,?,False,36,0.0,wpa2,US,NY,West 31st Street,City of New York,320,10001,Residential
40.75085068,-73.9965744,Helium Mobile,0,20240709-00000,2024-07-09T23:00:00.000Z,2024-07-09T21:00:00.000Z,2024-07-09T23:00:00.000Z,74:97:8E:00:14:2B,,infra,,2,0,?,?,?,False,11,0.0,wpa2,US,NY,West 31st Street,City of New York,340,10001,Residential
42.66677475,-83.11276245,Helium Mobile,0,20240331-00000,2024-03-31T23:00:00.000Z,2024-03-31T18:00:00.000Z,2024-03-31T18:00:00.000Z,74:97:8E:00:14:42,,infra,,2,0,?,?,?,False,132,0.0,wpa2,US,MI,East Avon Road,,,48307,Residential
42.66679001,-83.11252594,Helium Mobile,0,20240331-00000,2024-03-31T23:00:00.000Z,2024-03-31T18:00:00.000Z,2024-03-31T18:00:00.000Z,74:97:8E:00:14:43,,infra,,2,0,?,?,?,False,11,0.0,wpa2,US,MI,East Avon Road,,,48307,Residential
41.16025543,-104.80288696,Helium Mobile,0,20240525-00000,2024-05-25T19:00:00.000Z,2024-05-25T16:00:00.000Z,2024-05-25T18:00:00.000Z,74:97:8E:00:14:4B,,infra,,2,0,?,?,?,False,1,0.0,wpa2,US,WY,Dell Range Boulevard,Cheyenne,,82099,Business
43.03388596,-87.9125824,Helium Mobile,1,20240419-00000,2024-04-18T20:00:00.000Z,2024-07-21T07:00:00.000Z,2024-07-21T20:00:00.000Z,74:97:8E:00:14:5A,,infra,,2,0,?,?,?,False,132,0.0,wpa2,US,WI,North Plankinton Avenue,Milwaukee,305; 307; 309; 311; 313; 315; 317; 319; 321; 323; 325; 327; 329; 331; 333,53203,Business
74.0,74.0,Helium Mobile,0,20240419-00000,2024-04-18T20:00:00.000Z,2024-04-19T17:00:00.000Z,2024-04-19T18:00:00.000Z,74:97:8E:00:14:5B,,infra,,2,0,?,?,?,False,11,0.0,wpa2,,,,,,,Unknown
40.61998749,-74.01308441,Helium Mobile,0,20240521-00000,2024-05-22T02:00:00.000Z,2024-05-21T19:00:00.000Z,2024-05-21T19:00:00.000Z,74:97:8E:00:14:6A,,infra,,2,0,?,?,?,False,100,0.0,wpa2,US,NY,79th Street,City of New York,1146,11228,Residential
40.61999893,-74.01306915,Helium Mobile,0,20240521-00000,2024-05-22T02:00:00.000Z,2024-05-21T19:00:00.000Z,2024-05-21T19:00:00.000Z,74:97:8E:00:14:6B,,infra,,2,0,?,?,?,False,11,0.0,wpa2,US,NY,79th Street,City of New York,1146,11228,Residential
25.78702736,-80.38124084,Helium Mobile,2,20240603-00000,2024-06-04T02:00:00.000Z,2024-07-21T13:00:00.000Z,2024-07-22T04:00:00.000Z,74:97:8E:00:14:BA,,infra,,2,0,?,?,?,False,36,0.0,wpa2,US,FL,Northwest 12th Street,,11401,33172,Business
25.78705597,-80.38092041,Helium Mobile,0,20240603-00000,2024-06-04T02:00:00.000Z,2024-06-04T15:00:00.000Z,2024-06-04T16:00:00.000Z,74:97:8E:00:14:BB,,infra,,2,0,?,?,?,False,11,0.0,wpa2,US,FL,Northwest 12th Street,,11401,33172,Business
41.88521576,-87.65222931,Helium Mobile,2,20240328-00000,2024-03-28T11:00:00.000Z,2024-06-21T16:00:00.000Z,2024-06-21T18:00:00.000Z,74:97:8E:00:14:D2,,infra,,2,0,?,?,?,False,132,0.0,wpa2,US,IL,North Morgan Street,Chicago,160,60661,Residential
41.88521576,-87.65221405,Helium Mobile,2,20240328-00000,2024-03-28T11:00:00.000Z,2024-06-21T16:00:00.000Z,2024-06-21T18:00:00.000Z,74:97:8E:00:14:D3,,infra,,2,0,?,?,?,False,11,0.0,wpa2,US,IL,North Morgan Street,Chicago,160,60661,Residential
25.78703117,-80.38117981,Helium Mobile,2,20240603-00000,2024-06-04T02:00:00.000Z,2024-07-21T13:00:00.000Z,2024-07-22T04:00:00.000Z,74:97:8E:00:15:0A,,infra,,2,0,?,?,?,False,149,0.0,wpa2,US,FL,Northwest 12th Street,,11401,33172,Business
25.78694344,-80.38100433,Helium Mobile,0,20240603-00000,2024-06-04T02:00:00.000Z,2024-06-04T15:00:00.000Z,2024-06-04T16:00:00.000Z,74:97:8E:00:15:0B,,infra,,2,0,?,?,?,False,1,0.0,wpa2,US,FL,Northwest 12th Street,,11401,33172,Business
25.78768349,-80.3817749,Helium Mobile,0,20240721-00000,2024-07-21T19:00:00.000Z,2024-07-21T13:00:00.000Z,2024-07-22T04:00:00.000Z,74:97:8E:00:15:22,,infra,,2,0,?,?,?,False,132,0.0,wpa2,US,FL,Northwest 12th Street,,11401,33172,Business
25.78688431,-80.38108826,Helium Mobile,2,20240603-00000,2024-06-04T02:00:00.000Z,2024-07-21T13:00:00.000Z,2024-07-22T04:00:00.000Z,74:97:8E:00:15:42,,infra,,2,0,?,?,?,False,100,0.0,wpa2,US,FL,Northwest 12th Street,,11401,33172,Business
25.78699875,-80.38095093,Helium Mobile,0,20240603-00000,2024-06-04T02:00:00.000Z,2024-06-04T15:00:00.000Z,2024-06-04T16:00:00.000Z,74:97:8E:00:15:43,,infra,,2,0,?,?,?,False,11,0.0,wpa2,US,FL,Northwest 12th Street,,11401,33172,Business
40.65140915,-73.84091187,Helium Mobile,0,20240108-00000,2024-01-09T02:00:00.000Z,2024-01-08T22:00:00.000Z,2024-01-08T22:00:00.000Z,74:97:8E:00:15:6A,,infra,,2,0,?,?,?,False,52,,wpa2,US,NY,90th Street,City of New York,163-32,11414,Residential
40.65146637,-73.84091949,Helium Mobile,0,20240108-00000,2024-01-09T03:00:00.000Z,2024-01-08T22:00:00.000Z,2024-01-08T22:00:00.000Z,74:97:8E:00:15:6B,,infra,,2,0,?,?,?,False,9,,wpa2,US,NY,90th Street,City of New York,163-29,11414,Residential
34.10643768,-118.08512115,Helium Mobile,2,20240323-00000,2024-03-23T20:00:00.000Z,2024-07-20T20:00:00.000Z,2024-07-21T11:00:00.000Z,74:97:8E:00:15:72,,infra,,2,0,?,?,?,False,36,0.0,wpa2,US,CA,Willard Avenue,San Gabriel,,91775,Residential
34.10643005,-118.08504486,Helium Mobile,0,20240720-00000,2024-07-21T00:00:00.000Z,2024-07-20T20:00:00.000Z,2024-07-21T11:00:00.000Z,74:97:8E:00:15:73,,infra,,2,0,?,?,?,False,11,0.0,wpa2,US,CA,Willard Avenue,San Gabriel,,91775,Residential
25.78768349,-80.3817749,Helium Mobile,0,20240721-00000,2024-07-21T19:00:00.000Z,2024-07-21T13:00:00.000Z,2024-07-22T04:00:00.000Z,74:97:8E:00:15:82,,infra,,2,0,?,?,?,False,36,0.0,wpa2,US,FL,Northwest 12th Street,,11401,33172,Business
30.51965332,-97.84594727,Helium Mobile,0,20240618-00000,2024-06-18T08:00:00.000Z,2024-06-18T01:00:00.000Z,2024-06-18T01:00:00.000Z,74:97:8E:00:15:AB,,infra,,2,0,?,?,?,False,11,0.0,wpa2,US,TX,Silverstone Drive,Cedar Park,,78613-2277,Residential
41.80589294,-88.04216766,Helium Mobile,6,20240119-00000,2024-01-16T23:00:00.000Z,2024-06-01T18:00:00.000Z,2024-06-01T19:00:00.000Z,74:97:8E:00:15:C2,,infra,,2,0,?,?,?,False,100,0.0,wpa2,US,IL,Ogden Avenue,,,60515,Business
41.80578232,-88.04254913,Helium Mobile,4,20240314-00000,2024-03-14T13:00:00.000Z,2024-07-17T23:00:00.000Z,2024-07-17T23:00:00.000Z,74:97:8E:00:15:C3,,infra,,2,0,?,?,?,False,1,0.0,wpa2,US,IL,Ogden Avenue,,2410,60515,Business
39.61299896,-105.02444458,Helium Mobile,7,20240102-00000,2024-01-02T17:00:00.000Z,2024-04-08T19:00:00.000Z,2024-04-09T07:00:00.000Z,74:97:8E:00:15:F2,,infra,,2,0,?,?,?,False,52,0.0,wpa2,US,CO,West Bowles Avenue,,2842,80120,Business
39.61317062,-105.02446747,Helium Mobile,5,20240102-00000,2024-01-02T17:00:00.000Z,2024-02-11T17:00:00.000Z,2024-08-05T18:00:00.000Z,74:97:8E:00:15:F3,,infra,,2,0,?,?,?,False,1,0.0,wpa2,US,CO,West Bowles Avenue,,2842,80120,Business
40.72118759,-73.9967041,Helium Mobile,7,20240205-00000,2024-02-04T19:00:00.000Z,2024-08-09T14:00:00.000Z,2024-08-09T16:00:00.000Z,74:97:8E:00:16:5A,,infra,,2,0,?,?,?,False,36,0.0,wpa2,US,NY,Kenmare Street,City of New York,86,10012,Residential
40.72121048,-73.99671173,Helium Mobile,7,20240329-00000,2024-03-29T19:00:00.000Z,2024-07-06T17:00:00.000Z,2024-07-06T17:00:00.000Z,74:97:8E:00:16:5B,,infra,,2,0,?,?,?,False,4,0.0,wpa2,US,NY,Kenmare Street,City of New York,86,10012,Residential
40.60851669,-75.38567352,Helium Mobile,3,20240318-00000,2024-03-19T01:00:00.000Z,2024-05-04T18:00:00.000Z,2024-05-04T18:00:00.000Z,74:97:8E:00:16:9A,,infra,,2,0,?,?,?,False,100,0.0,wpa2,US,PA,Broadway,Bethlehem,,18108,Business
40.60859299,-75.38560486,Helium Mobile,2,20240318-00000,2024-03-19T01:00:00.000Z,2024-05-04T18:00:00.000Z,2024-05-04T18:00:00.000Z,74:97:8E:00:16:9B,,infra,,2,0,?,?,?,False,11,0.0,wpa2,US,PA,Broadway,Bethlehem,,18108,Business
44.97777176,-93.25904083,Helium Mobile,0,20240218-00000,2024-01-23T20:00:00.000Z,2024-02-18T09:00:00.000Z,2024-02-18T09:00:00.000Z,74:97:8E:00:16:C2,,infra,,2,0,?,?,?,False,116,0.0,wpa2,US,MN,Park Avenue,Minneapolis,240,55415,Residential
44.9777298,-93.25885773,Helium Mobile,0,20240123-00000,2024-01-23T20:00:00.000Z,2024-01-23T19:00:00.000Z,2024-01-23T19:00:00.000Z,74:97:8E:00:16:C3,,infra,,2,0,?,?,?,False,1,,wpa2,US,MN,Washington Avenue South,Minneapolis,,55415,Business
25.77997971,-80.22377014,Helium Mobile,3,20240516-00000,2024-05-16T14:00:00.000Z,2024-07-08T17:00:00.000Z,2024-07-08T17:00:00.000Z,74:97:8E:00:16:E2,,infra,,2,0,?,?,?,False,116,0.0,wpa2,US,FL,Northwest 7th Street,Miami,1761,33125,Residential
25.78000641,-80.22380829,Helium Mobile,0,20240708-00000,2024-06-03T23:00:00.000Z,2024-07-08T17:00:00.000Z,2024-07-08T17:00:00.000Z,74:97:8E:00:16:E3,,infra,,2,0,?,?,?,False,11,0.0,wpa2,US,FL,Northwest 7th Street,Miami,1763,33125,Residential
25.77996063,-80.22374725,Helium Mobile,2,20240615-00000,2024-06-15T12:00:00.000Z,2024-07-08T17:00:00.000Z,2024-07-08T17:00:00.000Z,74:97:8E:00:16:F2,,infra,,2,0,?,?,?,False,116,0.0,wpa2,US,FL,Northwest 7th Street,Miami,1761,33125,Residential
37.32105637,-121.97177887,Helium Mobile,0,20240103-00000,2024-01-04T02:00:00.000Z,2024-01-03T18:00:00.000Z,2024-01-03T18:00:00.000Z,74:97:8E:00:16:FA,,infra,,2,0,?,?,?,False,100,,wpa2,US,CA,Saratoga Avenue,San Jose,375,95129,Residential
37.32084274,-121.97197723,Helium Mobile,6,20240219-00000,2024-02-19T11:00:00.000Z,2024-08-02T04:00:00.000Z,2024-08-02T04:00:00.000Z,74:97:8E:00:16:FB,,infra,,2,0,?,?,?,False,1,0.0,wpa2,US,CA,Saratoga Avenue,San Jose,397,95129,Residential
25.79500389,-80.19486237,Helium Mobile,0,20240403-00000,2024-04-03T12:00:00.000Z,2024-04-03T11:00:00.000Z,2024-04-03T12:00:00.000Z,74:97:8E:00:17:23,,infra,,2,0,?,?,?,False,11,0.0,wpa2,US,FL,North Miami Avenue,Miami,1984,33136,Residential
25.78002357,-80.22382355,Helium Mobile,0,20240516-00000,2024-05-16T14:00:00.000Z,2024-05-16T12:00:00.000Z,2024-05-16T12:00:00.000Z,74:97:8E:00:17:9A,,infra,,2,0,?,?,?,False,36,0.0,wpa2,US,FL,Northwest 7th Street,Miami,1763,33125,Residential
37.57897186,-122.35124969,Helium Mobile,0,20240405-00000,2024-04-06T01:00:00.000Z,2024-04-05T21:00:00.000Z,2024-04-06T01:00:00.000Z,74:97:8E:00:17:BA,,infra,,2,0,?,?,?,False,100,0.0,wpa2,US,CA,Bellevue Avenue,Burlingame,1422,94010,Residential
37.57928085,-122.35057068,Helium Mobile,0,20240405-00000,2024-04-06T01:00:00.000Z,2024-04-05T21:00:00.000Z,2024-04-06T01:00:00.000Z,74:97:8E:00:17:BB,,infra,,2,0,?,?,?,False,6,0.0,wpa2,US,CA,Bellevue Avenue,Burlingame,1415,94101,Residential
30.17284584,-97.7997818,Helium Mobile,0,20240120-00000,2024-01-21T04:00:00.000Z,2024-01-20T22:00:00.000Z,2024-01-20T22:00:00.000Z,74:97:8E:00:17:C3,,infra,,2,0,?,?,?,False,4,,wpa2,US,TX,West Slaughter Lane,Austin,606;608,78748,Residential
32.76341248,-117.12303162,Helium Mobile,3,20240111-00000,2024-01-11T11:00:00.000Z,2024-06-15T14:00:00.000Z,2024-06-15T22:00:00.000Z,74:97:8E:00:17:FA,,infra,,2,0,?,?,?,False,52,0.0,wpa2,US,CA,Adams Avenue,San Diego,,92116,Business
32.76336288,-117.12347412,Helium Mobile,4,20240111-00000,2024-01-11T11:00:00.000Z,2024-06-15T14:00:00.000Z,2024-06-15T22:00:00.000Z,74:97:8E:00:17:FB,,infra,,2,0,?,?,?,False,11,0.0,wpa2,US,CA,Adams Avenue,San Diego,,92116,Residential
39.39771652,-76.56234741,Helium Mobile,0,20240720-00000,2024-05-30T20:00:00.000Z,2024-07-20T09:00:00.000Z,2024-07-20T15:00:00.000Z,74:97:8E:00:18:7A,,infra,,2,0,?,?,?,False,36,0.0,wpa2,US,MD,Raven Drive,,8701,21234,Residential
39.39779663,-76.5617981,Helium Mobile,3,20240628-00000,2024-06-28T13:00:00.000Z,2024-07-20T09:00:00.000Z,2024-07-20T15:00:00.000Z,74:97:8E:00:18:7B,,infra,,2,0,?,?,?,False,6,0.0,wpa2,US,MD,East Joppa Road,,1713,21234,Business
37.78094101,-122.41308594,Helium Mobile,5,20240318-00000,2024-03-17T06:00:00.000Z,2024-07-23T06:00:00.000Z,2024-07-24T03:00:00.000Z,74:97:8E:00:18:B2,,infra,,2,0,?,?,?,False,132,0.0,wpa2,US,CA,Charles J. Brenham Place,San Francisco,,94102,Business
37.78092194,-122.4131546,Helium Mobile,5,20240318-00000,2024-03-17T06:00:00.000Z,2024-07-23T06:00:00.000Z,2024-07-24T03:00:00.000Z,74:97:8E:00:18:B3,,infra,,2,0,?,?,?,False,1,0.0,wpa2,US,CA,Charles J. Brenham Place,San Francisco,,94102,Business
39.03417587,-77.37687683,Helium Mobile,0,20240402-00000,2024-04-03T00:00:00.000Z,2024-04-02T18:00:00.000Z,2024-04-02T19:00:00.000Z,74:97:8E:00:18:EA,,infra,,2,0,?,?,?,False,100,0.0,wpa2,US,VA,Sugarland Run Drive,,788,20164,Residential
33.49536133,-82.07891846,Helium Mobile,4,20240125-00000,2024-01-22T22:00:00.000Z,2024-02-28T15:00:00.000Z,2024-02-29T04:00:00.000Z,74:97:8E:00:19:B3,,infra,,2,0,?,?,?,False,11,0.0,wpa2,US,GA,I 20,Augusta,,30909,Business
26.7062645,-80.05260468,Helium Mobile,0,20240422-00000,2024-03-25T01:00:00.000Z,2024-04-22T07:00:00.000Z,2024-04-22T08:00:00.000Z,74:97:8E:00:19:C3,,infra,,2,0,?,?,?,False,11,0.0,wpa2,US,FL,Lakeview Avenue,West Palm Beach,,33401,Residential
42.40385056,-71.0594635,Helium Mobile,1,20240116-00000,2024-01-16T21:00:00.000Z,2024-01-26T05:00:00.000Z,2024-01-26T05:00:00.000Z,74:97:8E:00:1A:02,,infra,,2,0,?,?,?,False,52,,wpa2,US,MA,School Street,,43,02149-2512,Residential
42.40369415,-71.05939484,Helium Mobile,1,20240112-00000,2024-01-12T18:00:00.000Z,2024-01-16T17:00:00.000Z,2024-01-16T20:00:00.000Z,74:97:8E:00:1A:03,,infra,,2,0,?,?,?,False,1,,wpa2,US,MA,School Street,,37A,02149-2512,Residential
40.00436783,-82.97972107,Helium Mobile,0,20240313-00000,2001-01-01T00:00:00.000Z,2024-03-13T17:00:00.000Z,2024-03-13T18:00:00.000Z,74:97:8E:00:1A:52,,infra,,2,0,?,?,?,False,100,0.0,wpa2,US,OH,Hamilton Avenue,Columbus,,43211,Residential
40.00443268,-82.97972107,Helium Mobile,0,20240313-00000,2001-01-01T00:00:00.000Z,2024-03-13T17:00:00.000Z,2024-03-13T18:00:00.000Z,74:97:8E:00:1A:53,,infra,,2,0,?,?,?,False,11,0.0,wpa2,US,OH,Hamilton Avenue,Columbus,,43211,Residential
34.14006805,-117.615448,Helium Mobile,0,20240713-00000,2024-07-13T19:00:00.000Z,2024-07-13T15:00:00.000Z,2024-07-13T15:00:00.000Z,74:97:8E:00:1A:73,,infra,,2,0,?,?,?,False,11,0.0,wpa2,US,CA,Lemon Avenue,Rancho Cucamonga,,91701,Residential
40.62440872,-80.05448151,Helium Mobile,5,20240126-00000,2024-01-26T13:00:00.000Z,2024-07-17T13:00:00.000Z,2024-07-17T15:00:00.000Z,74:97:8E:00:1A:AA,,infra,,2,0,?,?,?,False,100,0.0,wpa2,US,PA,Perry Highway,,11403,15090,Residential
40.62483978,-80.05441284,Helium Mobile,5,20240126-00000,2024-01-26T13:00:00.000Z,2024-08-08T11:00:00.000Z,2024-08-08T11:00:00.000Z,74:97:8E:00:1A:AB,,infra,,2,0,?,?,?,False,1,0.0,wpa2,US,PA,Church Road,,,15090,Residential
40.25314713,-75.1330719,Helium Mobile,0,20240611-00000,2024-06-11T20:00:00.000Z,2024-06-11T15:00:00.000Z,2024-06-11T19:00:00.000Z,74:97:8E:00:1A:B2,,infra,,2,0,?,?,?,False,116,0.0,wpa2,US,PA,Easton Road,,1428,18976,Business
40.25317383,-75.13303375,Helium Mobile,2,20240126-00000,2024-01-26T18:00:00.000Z,2024-06-11T15:00:00.000Z,2024-06-11T19:00:00.000Z,74:97:8E:00:1A:B3,,infra,,2,0,?,?,?,False,1,0.0,wpa2,US,PA,Easton Road,,1428,18976,Business
41.86878204,-87.62419128,Helium Mobile,0,20240610-00000,2024-06-10T19:00:00.000Z,2024-06-10T15:00:00.000Z,2024-06-10T16:00:00.000Z,74:97:8E:00:1A:BA,,infra,,2,0,?,?,?,False,36,0.0,wpa2,US,IL,South Michigan Avenue,Chicago,,60605,Business
41.86882782,-87.62442017,Helium Mobile,0,20240108-00000,2024-01-08T00:00:00.000Z,2024-01-08T10:00:00.000Z,2024-01-08T10:00:00.000Z,74:97:8E:00:1A:BB,,infra,,2,0,?,?,?,False,1,,wpa2,US,IL,South Michigan Avenue,Chicago,1130,60605,Residential
30.37733269,-97.68710327,Helium Mobile,0,20240218-00000,2024-02-18T20:00:00.000Z,2024-02-19T08:00:00.000Z,2024-02-19T08:00:00.000Z,74:97:8E:00:1B:1B,,infra,,2,0,?,?,?,False,1,0.0,wpa2,US,TX,Motheral Drive,Austin,,78753,Business
47.24238586,-122.32164001,Helium Mobile,0,20240620-00000,2024-06-20T13:00:00.000Z,2024-06-20T13:00:00.000Z,2024-06-20T14:00:00.000Z,74:97:8E:00:1B:32,,infra,,2,0,?,?,?,False,36,0.0,wpa2,US,WA,10th Avenue,,,98354,Residential
47.2426796,-122.32164764,Helium Mobile,0,20240620-00000,2024-06-20T13:00:00.000Z,2024-06-20T13:00:00.000Z,2024-06-20T14:00:00.000Z,74:97:8E:00:1B:33,,infra,,2,0,?,?,?,False,11,0.0,wpa2,US,WA,Taylor Street,,,98371-1069,Residential
37.73377991,-122.38462067,Helium Mobile,0,20240118-00000,2024-01-19T00:00:00.000Z,2024-01-18T22:00:00.000Z,2024-01-18T22:00:00.000Z,74:97:8E:00:1B:E2,,infra,,2,0,?,?,?,False,52,,wpa2,US,CA,Whitney Young Circle,San Francisco,100,94188,Business
37.73384476,-122.3846817,Helium Mobile,0,20240118-00000,2024-01-19T00:00:00.000Z,2024-01-18T22:00:00.000Z,2024-01-18T22:00:00.000Z,74:97:8E:00:1B:E3,,infra,,2,0,?,?,?,False,1,,wpa2,US,CA,Whitney Young Circle,San Francisco,100,94188,Business
25.78665352,-80.1293335,Helium Mobile,0,20240331-00000,2024-04-01T03:00:00.000Z,2024-03-31T20:00:00.000Z,2024-03-31T20:00:00.000Z,74:97:8E:00:1B:F2,,infra,,2,0,?,?,?,False,132,0.0,wpa2,US,FL,Lummus Park Boardwalk,Miami Beach,,33139,Residential
35.99024582,-115.10092163,Helium Mobile,6,20240124-00000,2024-01-24T15:00:00.000Z,2024-06-25T08:00:00.000Z,2024-06-25T08:00:00.000Z,74:97:8E:00:1B:FA,,infra,,2,0,?,?,?,False,100,0.0,wpa2,US,NV,South Eastern Avenue,Henderson,,89052,Residential
35.99016953,-115.10090637,Helium Mobile,7,20240221-00000,2024-02-21T19:00:00.000Z,2024-07-27T21:00:00.000Z,2024-07-28T00:00:00.000Z,74:97:8E:00:1B:FB,,????,,2,0,?,?,?,False,4,0.0,wpa2,US,NV,South Eastern Avenue,Henderson,,89052,Residential
38.99274445,-77.16201782,Helium Mobile,4,20240410-00000,2024-04-10T19:00:00.000Z,2024-07-10T18:00:00.000Z,2024-07-10T19:00:00.000Z,74:97:8E:00:1C:52,,infra,,2,0,?,?,?,False,52,0.0,wpa2,US,MD,River Road,,,20818,Residential
38.99272537,-77.16199493,Helium Mobile,7,20240410-00000,2024-04-10T19:00:00.000Z,2024-08-01T07:00:00.000Z,2024-08-01T07:00:00.000Z,74:97:8E:00:1C:53,,infra,,2,0,?,?,?,False,11,0.0,wpa2,US,MD,River Road,,,20818,Residential
26.17226982,-80.28807831,Helium Mobile,0,20240326-00000,2024-03-26T07:00:00.000Z,2024-03-26T01:00:00.000Z,2024-03-26T01:00:00.000Z,74:97:8E:00:1C:5A,,infra,,2,0,?,?,?,False,36,0.0,wpa2,US,FL,Winding Lakes Road,Sunrise,,33351,Residential
26.30052567,-80.26931,Helium Mobile,0,20240325-00000,2024-03-25T10:00:00.000Z,2024-03-25T05:00:00.000Z,2024-03-25T05:00:00.000Z,74:97:8E:00:1C:62,,infra,,2,0,?,?,?,False,116,0.0,wpa2,US,FL,Northwest 57th Street,Coral Springs,,33076,Residential
39.13100052,-77.77750397,Helium Mobile,2,20240106-00000,2024-01-06T16:00:00.000Z,2024-04-06T11:00:00.000Z,2024-04-06T13:00:00.000Z,74:97:8E:00:1C:B3,,infra,,2,0,?,?,?,False,11,0.0,wpa2,US,VA,West Loudoun Street,,,20141,Residential
39.04259491,-77.45011902,Helium Mobile,0,20240314-00000,2024-03-10T17:00:00.000Z,2024-03-14T09:00:00.000Z,2024-03-14T09:00:00.000Z,74:97:8E:00:1C:C3,,infra,,2,0,?,?,?,False,11,0.0,wpa2,US,VA,Loudoun County Parkway,,,20417,Residential
40.73751831,-74.16867828,Helium Mobile,2,20240528-00000,2024-05-28T16:00:00.000Z,2024-06-20T07:00:00.000Z,2024-06-20T08:00:00.000Z,74:97:8E:00:1C:E3,,infra,,2,0,?,?,?,False,6,0.0,wpa2,US,NJ,Park Place,Newark,80,07102,Business
44.85865021,-93.22636414,Helium Mobile,0,20240727-00000,2024-07-27T18:00:00.000Z,2024-07-27T14:00:00.000Z,2024-07-27T17:00:00.000Z,74:97:8E:00:1D:2B,,infra,,2,0,?,?,?,False,11,0.0,wpa2,US,MN,American Boulevard East,,,55425,Residential
41.70398712,-87.72093201,Helium Mobile,0,20240810-00000,2024-08-10T20:00:00.000Z,2024-08-10T13:00:00.000Z,2024-08-10T14:00:00.000Z,74:97:8E:00:1D:4B,,infra,,2,0,?,?,?,False,6,0.0,wpa2,US,IL,West 104th Street,,,60655,Residential
26.38130379,-80.195961,Helium Mobile,0,20240328-00000,2024-03-28T16:00:00.000Z,2024-03-28T11:00:00.000Z,2024-03-28T12:00:00.000Z,74:97:8E:00:1D:6B,,infra,,2,0,?,?,?,False,11,0.0,wpa2,US,FL,La Fontana Boulevard,,,33434,Residential
44.86207199,-93.22636414,Helium Mobile,1,20240201-00000,2024-02-01T23:00:00.000Z,2024-06-16T13:00:00.000Z,2024-06-16T20:00:00.000Z,74:97:8E:00:1D:83,,infra,,2,0,?,?,?,False,6,0.0,wpa2,US,MN,I 494;MN 5,,,55425,Business
29.80873489,-95.41739655,Helium Mobile,2,20240118-00000,2024-01-18T23:00:00.000Z,2024-03-15T07:00:00.000Z,2024-03-15T07:00:00.000Z,74:97:8E:00:1D:92,,infra,,2,0,?,?,?,False,116,0.0,wpa2,US,TX,West 25th Street,Houston,,77008,Residential
29.8087368,-95.41793823,Helium Mobile,1,20240118-00000,2024-01-18T23:00:00.000Z,2024-02-08T16:00:00.000Z,2024-02-08T17:00:00.000Z,74:97:8E:00:1D:93,,infra,,2,0,?,?,?,False,11,0.0,wpa2,US,TX,West 25th Street,Houston,,77008,Residential
30.20208359,-97.66829681,Helium Mobile,0,20240415-00000,2024-04-15T17:00:00.000Z,2024-04-15T11:00:00.000Z,2024-04-15T11:00:00.000Z,74:97:8E:00:1D:A2,,infra,,2,0,?,?,?,False,36,0.0,wpa2,US,TX,30,Austin,,78742,Business
30.20198631,-97.66775513,Helium Mobile,0,20240209-00000,2024-02-10T04:00:00.000Z,2024-04-15T11:00:00.000Z,2024-04-15T11:00:00.000Z,74:97:8E:00:1D:A3,,infra,,2,0,?,?,?,False,6,0.0,wpa2,US,TX,30,Austin,,78742,Business
40.77286148,-96.65410614,Helium Mobile,1,20240105-00000,2024-01-05T23:00:00.000Z,2024-01-06T23:00:00.000Z,2024-01-06T23:00:00.000Z,74:97:8E:00:1D:AA,,infra,,2,0,?,?,?,False,100,,wpa2,US,NE,South 48th Street,Lincoln,,68506,Residential
40.77334976,-96.65402222,Helium Mobile,0,20240105-00000,2024-01-05T23:00:00.000Z,2024-01-06T23:00:00.000Z,2024-04-22T06:00:00.000Z,74:97:8E:00:1D:AB,,infra,,2,0,?,?,?,False,1,0.0,wpa2,US,NE,South 48th Street,Lincoln,,68506,Business
44.7640419,-93.36644745,Helium Mobile,5,20240429-00000,2024-04-30T00:00:00.000Z,2024-07-31T05:00:00.000Z,2024-07-31T05:00:00.000Z,74:97:8E:00:1E:3B,,infra,,2,0,?,?,?,False,11,0.0,wpa2,US,MN,Mc Coll Drive,,,55378,Residential
44.85472488,-93.51159668,Helium Mobile,0,20240423-00000,2024-04-24T00:00:00.000Z,2024-04-23T18:00:00.000Z,2024-04-23T19:00:00.000Z,74:97:8E:00:1E:42,,infra,,2,0,?,?,?,False,36,0.0,wpa2,US,MN,Magenta Bay,,,55317,Residential
44.85482407,-93.5114212,Helium Mobile,3,20240423-00000,2024-04-24T00:00:00.000Z,2024-06-21T07:00:00.000Z,2024-06-21T07:00:00.000Z,74:97:8E:00:1E:43,,infra,,2,0,?,?,?,False,1,0.0,wpa2,US,MN,Dell Road,,,55347,Business
44.76401901,-93.36651611,Helium Mobile,5,20240418-00000,2024-04-19T00:00:00.000Z,2024-08-05T11:00:00.000Z,2024-08-05T14:00:00.000Z,74:97:8E:00:1E:4B,,infra,,2,0,?,?,?,False,11,0.0,wpa2,US,MN,Mc Coll Drive,,,55378,Residential
26.06090927,-80.16157532,Helium Mobile,3,20240206-00000,2024-02-07T00:00:00.000Z,2024-05-24T21:00:00.000Z,2024-05-24T22:00:00.000Z,74:97:8E:00:1E:6A,,infra,,2,0,?,?,?,False,100,0.0,wpa2,US,FL,Griffin Road,,1825,33004,Business
26.06085205,-80.16146088,Helium Mobile,4,20240206-00000,2024-02-07T00:00:00.000Z,2024-05-24T21:00:00.000Z,2024-05-24T22:00:00.000Z,74:97:8E:00:1E:6B,,infra,,2,0,?,?,?,False,1,0.0,wpa2,US,FL,Griffin Road,,1825,33004,Business
42.52596664,-71.75996399,Helium Mobile,1,20240526-00000,2024-05-26T16:00:00.000Z,2024-06-09T14:00:00.000Z,2024-06-09T17:00:00.000Z,74:97:8E:00:1E:A2,,infra,,2,0,?,?,?,False,116,0.0,wpa2,US,MA,Monument Square,Leominster,,01453,Business
39.66103363,-104.85561371,Helium Mobile,4,20240206-00000,2024-02-06T22:00:00.000Z,2024-07-15T08:00:00.000Z,2024-07-15T11:00:00.000Z,74:97:8E:00:1E:AB,,infra,,2,0,?,?,?,False,11,0.0,wpa2,US,CO,South Macon Circle,Aurora,3081,80014,Business
40.73336029,-73.99112701,Helium Mobile,6,20240303-00000,2024-03-03T14:00:00.000Z,2024-08-06T16:00:00.000Z,2024-08-06T17:00:00.000Z,74:97:8E:00:1E:BA,,infra,,2,0,?,?,?,False,132,0.0,wpa2,US,NY,Broadway,City of New York,821,10003,Business
26.06091118,-80.16200256,Helium Mobile,0,20240206-00000,2024-02-07T00:00:00.000Z,2024-02-06T20:00:00.000Z,2024-02-06T21:00:00.000Z,74:97:8E:00:1E:E2,,infra,,2,0,?,?,?,False,100,0.0,wpa2,US,FL,Griffin Road,,1825,33004,Business
26.06088829,-80.16209412,Helium Mobile,0,20240206-00000,2024-02-07T00:00:00.000Z,2024-02-06T21:00:00.000Z,2024-02-06T22:00:00.000Z,74:97:8E:00:1E:E3,,infra,,2,0,?,?,?,False,1,0.0,wpa2,US,FL,Griffin Road,,1825,33004,Business
39.34573746,-104.83035278,Helium Mobile,0,20240422-00000,2024-04-15T21:00:00.000Z,2024-04-22T10:00:00.000Z,2024-04-22T13:00:00.000Z,74:97:8E:00:1F:02,,infra,,2,0,?,?,?,False,36,0.0,wpa2,US,CO,South Lake Gulch Road,,,80104,Residential
0.0,0.0,Helium Mobile,0,20240422-00000,2001-01-01T00:00:00.000Z,2001-01-01T00:00:00.000Z,2024-04-22T13:00:00.000Z,74:97:8E:00:1F:03,,infra,,2,0,?,?,?,False,11,0.0,wpa2,,,,,,,Unknown
34.00053406,-84.14173126,Helium Mobile,1,20240321-00000,2024-03-21T19:00:00.000Z,2024-06-13T13:00:00.000Z,2024-06-13T20:00:00.000Z,74:97:8E:00:1F:1A,,infra,,2,0,?,?,?,False,36,0.0,wpa2,US,GA,Duluth Highway,,3468,30096,Business
34.00070953,-84.14190674,Helium Mobile,0,20240302-00000,2024-03-03T00:00:00.000Z,2024-03-02T17:00:00.000Z,2024-03-02T21:00:00.000Z,74:97:8E:00:1F:1B,,infra,,2,0,?,?,?,False,1,0.0,wpa2,US,GA,Duluth Highway,,3468,30096,Business
39.66079712,-104.85404205,Helium Mobile,2,20240527-00000,2024-05-27T02:00:00.000Z,2024-07-15T08:00:00.000Z,2024-08-01T11:00:00.000Z,74:97:8E:00:1F:23,,infra,,2,0,?,?,?,False,6,0.0,wpa2,US,CO,East Dartmouth Avenue,Aurora,,80014,Business
39.66072464,-104.85982513,Helium Mobile,0,20240801-00000,2024-08-01T05:00:00.000Z,2024-08-01T11:00:00.000Z,2024-08-01T11:00:00.000Z,74:97:8E:00:1F:2A,,infra,,2,0,?,?,?,False,100,0.0,wpa2,US,CO,South Parker Road,Aurora,3035,80014,Business
25.87690735,-80.16892242,Helium Mobile,5,20240517-00000,2024-04-06T20:00:00.000Z,2024-07-22T22:00:00.000Z,2024-07-23T22:00:00.000Z,74:97:8E:00:1F:A3,,infra,,2,0,?,?,?,False,11,0.0,wpa2,US,FL,Biscayne Boulevard,,11000,33161,Residential
40.76807785,-73.98566437,Helium Mobile,7,20240109-00000,2024-01-09T18:00:00.000Z,2024-07-09T22:00:00.000Z,2024-07-10T01:00:00.000Z,74:97:8E:00:1F:AA,,infra,,2,0,?,?,?,False,36,0.0,wpa2,US,NY,9th Avenue,City of New York,,10019,Business
40.76795959,-73.98587799,Helium Mobile,5,20240116-00000,2024-01-16T21:00:00.000Z,2024-07-09T23:00:00.000Z,2024-07-10T01:00:00.000Z,74:97:8E:00:1F:AB,,infra,,Y,0,?,?,?,False,11,0.0,wep,US,NY,West 57th Street,City of New York,400,10019,Residential
36.04037857,-115.30274963,Helium Mobile,0,20240213-00000,2024-02-13T17:00:00.000Z,2024-02-13T14:00:00.000Z,2024-02-13T14:00:00.000Z,74:97:8E:00:20:0A,,infra,,2,0,?,?,?,False,100,0.0,wpa2,US,NV,Beckton Park Avenue,,,89178,Residential
39.73439026,-104.99638367,Helium Mobile,0,20240225-00000,2024-02-26T01:00:00.000Z,2024-02-25T17:00:00.000Z,2024-02-25T18:00:00.000Z,74:97:8E:00:20:5A,,infra,,2,0,?,?,?,False,100,0.0,wpa2,US,CO,Galapago Street,Denver,1170,80204,Residential
36.01506424,-115.16168976,Helium Mobile,4,20240508-00000,2024-05-08T19:00:00.000Z,2024-08-03T00:00:00.000Z,2024-08-03T00:00:00.000Z,74:97:8E:00:20:8A,,infra,,2,0,?,?,?,False,100,0.0,wpa2,US,NV,,,,89183,Residential
36.01504135,-115.16191864,Helium Mobile,3,20240526-00000,2024-05-22T12:00:00.000Z,2024-06-18T14:00:00.000Z,2024-06-18T14:00:00.000Z,74:97:8E:00:20:8B,,????,,2,0,?,?,?,False,1,0.0,wpa2,US,NV,,,,89183,Residential
25.78852081,-80.38222504,Helium Mobile,0,20240721-00000,2024-07-21T17:00:00.000Z,2024-07-21T12:00:00.000Z,2024-07-22T00:00:00.000Z,74:97:8E:00:20:B2,,infra,,2,0,?,?,?,False,36,0.0,wpa2,US,FL,Northwest 12th Street,,11401,33172,Business
25.78870201,-80.38258362,Helium Mobile,0,20240721-00000,2024-07-21T18:00:00.000Z,2024-07-21T12:00:00.000Z,2024-07-22T01:00:00.000Z,74:97:8E:00:20:B3,,infra,,2,0,?,?,?,False,11,0.0,wpa2,US,FL,Northwest 12th Street,,11401,33172,Business
40.73734283,-74.01014709,Helium Mobile,2,20240507-00000,2024-05-08T00:00:00.000Z,2024-05-23T18:00:00.000Z,2024-05-23T19:00:00.000Z,74:97:8E:00:20:E2,,infra,,2,0,?,?,?,False,100,0.0,wpa2,US,NY,Hudson River Greenway,City of New York,,10014-3621,Residential
40.73746109,-74.00998688,Helium Mobile,7,20240227-00000,2024-02-28T03:00:00.000Z,2024-07-22T01:00:00.000Z,2024-07-22T20:00:00.000Z,74:97:8E:00:20:E3,,infra,,2,0,?,?,?,False,9,0.0,wpa2,US,NY,West 12 Street,City of New York,,10014,Business
25.77164459,-80.18695068,Helium Mobile,6,20240321-00000,2024-03-21T02:00:00.000Z,2024-06-08T08:00:00.000Z,2024-06-08T08:00:00.000Z,74:97:8E:00:21:22,,infra,,2,0,?,?,?,False,132,0.0,wpa2,US,FL,Biscayne Boulevard,Miami,,33131,Business
25.77267265,-80.18695831,Helium Mobile,0,20240322-00000,2024-03-21T19:00:00.000Z,2024-03-22T16:00:00.000Z,2024-03-22T19:00:00.000Z,74:97:8E:00:21:23,,infra,,2,0,?,?,?,False,11,0.0,wpa2,US,FL,Chopin Plaza,Miami,,33131,Business
25.7718544,-80.18729401,Helium Mobile,6,20240321-00000,2024-03-21T02:00:00.000Z,2024-06-08T08:00:00.000Z,2024-06-08T08:00:00.000Z,74:97:8E:00:21:32,,infra,,2,0,?,?,?,False,132,0.0,wpa2,US,FL,Southeast 3rd Street,Miami,,33131,Residential
25.77157211,-80.18736267,Helium Mobile,5,20240321-00000,2024-03-21T02:00:00.000Z,2024-07-16T19:00:00.000Z,2024-07-16T19:00:00.000Z,74:97:8E:00:21:33,,infra,,2,0,?,?,?,False,1,0.0,wpa2,US,FL,Biscayne Boulevard,Miami,300,33131,Residential
25.77202606,-80.18723297,Helium Mobile,5,20240223-00000,2024-02-23T14:00:00.000Z,2024-04-01T17:00:00.000Z,2024-07-22T00:00:00.000Z,74:97:8E:00:21:42,,infra,,2,0,?,?,?,False,149,0.0,wpa2,US,FL,Biscayne Boulevard,Miami,,33131,Residential
25.77177811,-80.18740082,Helium Mobile,2,20240321-00000,2024-03-21T02:00:00.000Z,2024-04-01T17:00:00.000Z,2024-07-22T01:00:00.000Z,74:97:8E:00:21:43,,infra,,2,0,?,?,?,False,11,0.0,wpa2,US,FL,Southeast 3rd Street,Miami,,33131,Residential
40.00450134,-105.27256775,Helium Mobile,0,20240512-00000,2024-05-03T07:00:00.000Z,2024-05-12T14:00:00.000Z,2024-05-12T16:00:00.000Z,74:97:8E:00:21:82,,infra,,2,0,?,?,?,False,116,0.0,wpa2,US,CO,16th Street,Boulder,,80309,Residential
40.00493622,-105.27178192,Helium Mobile,2,20240316-00000,2024-03-15T18:00:00.000Z,2024-05-27T11:00:00.000Z,2024-05-27T12:00:00.000Z,74:97:8E:00:21:83,,infra,,2,0,?,?,?,False,1,0.0,wpa2,US,CO,Broadway,Boulder,,80309,Business
36.18862534,-94.2201767,Helium Mobile,0,20240720-00000,2024-07-20T16:00:00.000Z,2024-07-20T10:00:00.000Z,2024-07-20T17:00:00.000Z,74:97:8E:00:21:AA,,infra,,2,0,?,?,?,False,116,0.0,wpa2,US,AR,Bella Toscana Road,Springdale,155,72762,Residential
36.18877411,-94.22006226,Helium Mobile,1,20240720-00000,2024-07-20T16:00:00.000Z,2024-07-27T16:00:00.000Z,2024-07-27T20:00:00.000Z,74:97:8E:00:21:AB,,infra,,2,0,?,?,?,False,1,0.0,wpa2,US,AR,Har-Ber Avenue,Springdale,,72762,Residential
34.08201981,-118.38822937,Helium Mobile,4,20240420-00000,2024-04-20T02:00:00.000Z,2024-07-30T08:00:00.000Z,2024-07-30T08:00:00.000Z,74:97:8E:00:21:BA,,infra,,2,0,?,?,?,False,116,0.0,wpa2,US,CA,Santa Monica Boulevard,,9048,90069,Residential
34.08201981,-118.38826752,Helium Mobile,1,20240420-00000,2024-04-20T02:00:00.000Z,2024-06-30T03:00:00.000Z,2024-06-30T03:00:00.000Z,74:97:8E:00:21:BB,,infra,,2,0,?,?,?,False,1,0.0,wpa2,US,CA,Santa Monica Boulevard,,9045,90069,Business
33.97893906,-84.3508606,Helium Mobile,0,20240216-00000,2024-02-17T01:00:00.000Z,2024-02-16T17:00:00.000Z,2024-02-16T18:00:00.000Z,74:97:8E:00:21:C3,,infra,,2,0,?,?,?,False,11,0.0,wpa2,US,GA,Roswell Road,Atlanta,1100,30350,Residential
36.06111908,-94.16435242,Helium Mobile,1,20240701-00000,2024-06-29T18:00:00.000Z,2024-08-05T10:00:00.000Z,2024-08-05T13:00:00.000Z,74:97:8E:00:21:CB,,infra,,2,0,?,?,?,False,1,0.0,wpa2,US,AR,South School Avenue,Fayetteville,116,72701,Residential
42.13839722,-83.17882538,Helium Mobile,1,20240301-00000,2024-03-01T21:00:00.000Z,2024-03-02T12:00:00.000Z,2024-03-02T16:00:00.000Z,74:97:8E:00:22:3A,,infra,,2,0,?,?,?,False,116,0.0,wpa2,US,MI,West Jefferson Avenue,,,48183,Business
42.13838959,-83.17948151,Helium Mobile,0,20240301-00000,2024-03-01T21:00:00.000Z,2024-03-01T16:00:00.000Z,2024-03-02T01:00:00.000Z,74:97:8E:00:22:3B,,infra,,2,0,?,?,?,False,1,0.0,wpa2,US,MI,West Jefferson Avenue,,,48183,Business
30.65904236,-88.11102295,Helium Mobile,0,20240106-00000,2024-01-06T18:00:00.000Z,2024-01-06T11:00:00.000Z,2024-01-06T11:00:00.000Z,74:97:8E:00:22:CB,,infra,,2,0,?,?,?,False,1,,wpa2,US,AL,Government Boulevard,Mobile,,36606,Business
25.77242279,-80.14765167,Helium Mobile,4,20240605-00000,2024-06-05T18:00:00.000Z,2024-07-23T09:00:00.000Z,2024-07-24T07:00:00.000Z,74:97:8E:00:22:E2,,infra,,2,0,?,?,?,False,132,0.0,wpa2,US,FL,MacArthur Causeway,Miami Beach,,33139,Business
37.79819489,-122.40410614,Helium Mobile,0,20240303-00000,2024-03-03T18:00:00.000Z,2024-03-03T13:00:00.000Z,2024-03-03T16:00:00.000Z,74:97:8E:00:22:F3,,infra,,2,0,?,?,?,False,11,0.0,wpa2,US,CA,Broadway,San Francisco,425,94113,Business
38.99829102,-77.00127411,Helium Mobile,0,20240721-00000,2024-07-21T15:00:00.000Z,2024-07-21T14:00:00.000Z,2024-07-22T04:00:00.000Z,74:97:8E:00:23:1A,,infra,,2,0,?,?,?,False,132,0.0,wpa2,US,MD,Piney Branch Road,Silver Spring,,20903,Business
38.99830627,-77.00161743,Helium Mobile,0,20240721-00000,2024-07-21T11:00:00.000Z,2024-07-21T13:00:00.000Z,2024-07-22T04:00:00.000Z,74:97:8E:00:23:1B,,infra,,2,0,?,?,?,False,11,0.0,wpa2,US,MD,Piney Branch Road,Silver Spring,,20903,Residential
41.25792694,-95.97203827,Helium Mobile,1,20240504-00000,2024-05-04T06:00:00.000Z,2024-06-29T23:00:00.000Z,2024-06-30T00:00:00.000Z,74:97:8E:00:23:32,,infra,,2,0,?,?,?,False,52,0.0,wpa2,US,NE,Farnam Street,Omaha,3902,68131,Business
41.25797653,-95.9720993,Helium Mobile,1,20240504-00000,2024-05-04T06:00:00.000Z,2024-06-29T23:00:00.000Z,2024-06-30T00:00:00.000Z,74:97:8E:00:23:33,,infra,,2,0,?,?,?,False,11,0.0,wpa2,US,NE,Farnam Street,Omaha,3902,68131,Business
35.66521835,-105.95626831,Helium Mobile,2,20240317-00000,2023-05-24T23:00:00.000Z,2024-05-09T14:00:00.000Z,2024-05-09T16:00:00.000Z,74:97:8E:00:23:5A,,infra,,2,0,?,?,?,False,132,0.0,wpa2,US,NM,South Saint Francis Drive,Santa Fe,1440,87505,Business
35.66573334,-105.95625305,Helium Mobile,0,20240317-00000,2023-05-24T23:00:00.000Z,2024-03-17T16:00:00.000Z,2024-03-17T19:00:00.000Z,74:97:8E:00:23:5B,,infra,,2,0,?,?,?,False,1,0.0,wpa2,US,NM,South Saint Francis Drive,Santa Fe,1440,87505,Residential
40.20587158,-74.69546509,Helium Mobile,0,20240327-00000,2024-03-28T00:00:00.000Z,2024-03-27T19:00:00.000Z,2024-03-28T00:00:00.000Z,74:97:8E:00:23:93,,infra,,2,0,?,?,?,False,11,0.0,wpa2,US,NJ,White Horse Avenue,,,08619,Residential
34.08193588,-117.97969055,Helium Mobile,0,20240715-00000,2024-07-15T21:00:00.000Z,2024-07-15T16:00:00.000Z,2024-07-15T18:00:00.000Z,74:97:8E:00:23:A2,,infra,,2,0,?,?,?,False,149,0.0,wpa2,US,CA,Ramona Boulevard,Baldwin Park,,91706,Business
40.73303986,-74.00326538,Helium Mobile,7,20240106-00000,2024-01-06T17:00:00.000Z,2024-06-14T13:00:00.000Z,2024-06-14T18:00:00.000Z,74:97:8E:00:23:BA,,infra,,2,0,?,?,?,False,132,0.0,wpa2,US,NY,West 4th Street,City of New York,,10014,Business
40.73358536,-74.00296021,Helium Mobile,7,20240126-00000,2024-01-26T19:00:00.000Z,2024-07-22T18:00:00.000Z,2024-07-23T19:00:00.000Z,74:97:8E:00:23:BB,,infra,,2,0,?,?,?,False,6,0.0,wpa2,US,NY,West 4th Street,City of New York,,10014,Business
32.69567871,-117.17760468,Helium Mobile,0,20240717-00000,2024-07-12T01:00:00.000Z,2024-07-17T20:00:00.000Z,2024-07-17T21:00:00.000Z,74:97:8E:00:23:F2,,infra,,2,0,?,?,?,False,149,0.0,wpa2,US,CA,4th Street,,817,92118,Residential
32.69548798,-117.17719269,Helium Mobile,0,20240425-00000,2024-04-25T23:00:00.000Z,2024-04-25T17:00:00.000Z,2024-04-25T18:00:00.000Z,74:97:8E:00:23:F3,,infra,,2,0,?,?,?,False,11,0.0,wpa2,US,CA,4th Street,,,92135,Business
42.1119957,-83.1934433,Helium Mobile,1,20240301-00000,2024-03-01T21:00:00.000Z,2024-03-03T09:00:00.000Z,2024-03-03T09:00:00.000Z,74:97:8E:00:24:12,,infra,,2,0,?,?,?,False,100,0.0,wpa2,US,MI,West Jefferson Avenue,,5784,48183,Business
42.11209488,-83.19338226,Helium Mobile,5,20240301-00000,2024-03-01T21:00:00.000Z,2024-07-12T21:00:00.000Z,2024-07-12T22:00:00.000Z,74:97:8E:00:24:13,,infra,,2,0,?,?,?,False,11,0.0,wpa2,US,MI,West Jefferson Avenue,,5784,48183,Business
32.76506805,-117.18904114,Helium Mobile,0,20240331-00000,2024-03-31T19:00:00.000Z,2024-03-31T15:00:00.000Z,2024-03-31T15:00:00.000Z,74:97:8E:00:24:1A,,infra,,2,0,?,?,?,False,149,0.0,wpa2,US,CA,Friars Road,San Diego,5750,92110,Residential
32.76493835,-117.18916321,Helium Mobile,2,20240227-00000,2024-02-24T18:00:00.000Z,2024-03-18T17:00:00.000Z,2024-03-18T18:00:00.000Z,74:97:8E:00:24:1B,,infra,,2,0,?,?,?,False,1,0.0,wpa2,US,CA,Friars Road,San Diego,,92110,Residential
32.76493073,-117.18928528,Helium Mobile,3,20240227-00000,2024-02-24T18:00:00.000Z,2024-03-31T15:00:00.000Z,2024-03-31T15:00:00.000Z,74:97:8E:00:24:32,,infra,,2,0,?,?,?,False,149,0.0,wpa2,US,CA,Friars Road,San Diego,,92110,Residential
32.76493454,-117.18914032,Helium Mobile,0,20240317-00000,2024-03-18T01:00:00.000Z,2024-03-18T17:00:00.000Z,2024-03-18T18:00:00.000Z,74:97:8E:00:24:33,,infra,,2,0,?,?,?,False,11,0.0,wpa2,US,CA,Friars Road,San Diego,,92110,Residential
33.76592636,-118.19045258,Helium Mobile,2,20240601-00000,2024-06-01T21:00:00.000Z,2024-08-03T12:00:00.000Z,2024-08-03T19:00:00.000Z,74:97:8E:00:24:6A,,infra,,2,0,?,?,?,False,36,0.0,wpa2,US,CA,East Seaside Way,Long Beach,,90802,Residential
33.76589966,-118.19055939,Helium Mobile,2,20240601-00000,2024-06-01T21:00:00.000Z,2024-08-03T12:00:00.000Z,2024-08-03T19:00:00.000Z,74:97:8E:00:24:6B,,infra,,2,0,?,?,?,False,11,0.0,wpa2,US,CA,East Seaside Way,Long Beach,,90802,Residential
33.95981216,-118.11435699,Helium Mobile,0,20240622-00000,2024-05-12T01:00:00.000Z,2024-06-22T23:00:00.000Z,2024-06-23T01:00:00.000Z,74:97:8E:00:24:8B,,infra,,2,0,?,?,?,False,1,0.0,wpa2,US,CA,Santa Ana Freeway,Downey,,90240,Business
40.05282974,-105.27523804,Helium Mobile,0,20240313-00000,2024-03-13T21:00:00.000Z,2024-03-13T15:00:00.000Z,2024-03-13T16:00:00.000Z,74:97:8E:00:24:C2,,infra,,2,0,?,?,?,False,36,0.0,wpa2,US,CO,Upland Avenue,Boulder,,80304,Residential
40.05251694,-105.27500916,Helium Mobile,0,20240313-00000,2024-03-13T21:00:00.000Z,2024-03-13T15:00:00.000Z,2024-03-13T16:00:00.000Z,74:97:8E:00:24:C3,,infra,,2,0,?,?,?,False,11,0.0,wpa2,US,CO,Sumac Avenue,Boulder,1897,80304,Business
40.61507797,-111.89053345,Helium Mobile,0,20240514-00000,2024-03-03T01:00:00.000Z,2024-05-14T08:00:00.000Z,2024-05-14T09:00:00.000Z,74:97:8E:00:24:DB,,infra,,2,0,?,?,?,False,6,0.0,wpa2,US,UT,7500 South,,,84047,Residential
34.06587219,-118.29158783,Helium Mobile,3,20240427-00000,2024-04-27T19:00:00.000Z,2024-07-24T00:00:00.000Z,2024-07-24T21:00:00.000Z,74:97:8E:00:25:22,,infra,,2,0,?,?,?,False,149,0.0,wpa2,US,CA,South Vermont Avenue,Los Angeles,434,90020,Business
34.06585312,-118.29172516,Helium Mobile,7,20240330-00000,2024-03-29T21:00:00.000Z,2024-07-24T00:00:00.000Z,2024-07-24T21:00:00.000Z,74:97:8E:00:25:23,,infra,,2,0,?,?,?,False,1,0.0,wpa2,US,CA,South Vermont Avenue,Los Angeles,434,90020,Business
40.13367844,-75.51847076,Helium Mobile,3,20240630-00000,2024-06-30T15:00:00.000Z,2024-07-11T21:00:00.000Z,2024-07-11T22:00:00.000Z,74:97:8E:00:25:42,,infra,,2,0,?,?,?,False,132,0.0,wpa2,US,PA,Gay Street,,,19460,Residential
40.13374329,-75.51837921,Helium Mobile,2,20240630-00000,2024-06-30T15:00:00.000Z,2024-07-11T21:00:00.000Z,2024-07-11T22:00:00.000Z,74:97:8E:00:25:43,,infra,,2,0,?,?,?,False,6,0.0,wpa2,US,PA,Bridge Street,,,19460,Business
38.91263962,-77.03328705,Helium Mobile,3,20240418-00000,2024-04-18T17:00:00.000Z,2024-05-26T10:00:00.000Z,2024-05-26T10:00:00.000Z,74:97:8E:00:25:9A,,infra,,2,0,?,?,?,False,132,0.0,wpa2,US,DC,R Street Northwest,Washington,1427,20005:20018,Residential
34.06578445,-118.29167175,Helium Mobile,7,20240423-00000,2024-04-23T07:00:00.000Z,2024-07-24T00:00:00.000Z,2024-07-24T21:00:00.000Z,74:97:8E:00:25:A2,,infra,,2,0,?,?,?,False,149,0.0,wpa2,US,CA,South Vermont Avenue,Los Angeles,,90020,Business
34.06599808,-118.29172516,Helium Mobile,4,20240330-00000,2024-03-29T21:00:00.000Z,2024-07-24T00:00:00.000Z,2024-07-24T21:00:00.000Z,74:97:8E:00:25:A3,,infra,,2,0,?,?,?,False,1,0.0,wpa2,US,CA,South Vermont Avenue,Los Angeles,434,90020,Business
40.54037857,-85.67364502,Helium Mobile,6,20240216-00000,2024-02-15T23:00:00.000Z,2024-07-25T04:00:00.000Z,2024-07-25T16:00:00.000Z,74:97:8E:00:25:C2,,infra,,2,0,?,?,?,False,116,0.0,wpa2,US,IN,South Western Avenue,,2307,46953,Business
40.53987885,-85.67366028,Helium Mobile,6,20240216-00000,2024-02-15T23:00:00.000Z,2024-07-26T16:00:00.000Z,2024-07-26T23:00:00.000Z,74:97:8E:00:25:C3,,infra,,2,0,?,?,?,False,6,0.0,wpa2,US,IN,South Western Avenue,,2307,46953,Business
42.46893692,-71.0517807,Helium Mobile,3,20240229-00000,2024-02-29T23:00:00.000Z,2024-08-03T17:00:00.000Z,2024-08-04T02:00:00.000Z,74:97:8E:00:25:F2,,infra,,2,0,?,?,?,False,116,0.0,wpa2,US,MA,Carlida Road,,11,02176,Residential
42.4692955,-71.05187225,Helium Mobile,1,20240507-00000,2024-05-08T00:00:00.000Z,2024-08-03T17:00:00.000Z,2024-08-04T02:00:00.000Z,74:97:8E:00:25:F3,,infra,,2,0,?,?,?,False,11,0.0,wpa2,US,MA,Carlida Road,,21,02176,Residential
33.89987946,-118.02922821,Helium Mobile,0,20240125-00000,2024-01-20T22:00:00.000Z,2024-01-25T09:00:00.000Z,2024-01-25T09:00:00.000Z,74:97:8E:00:26:4B,,infra,,2,0,?,?,?,False,11,,wpa2,US,CA,Valley View Avenue,,,90638,Business
37.78428268,-122.43221283,Helium Mobile,0,20240225-00000,2024-02-26T01:00:00.000Z,2024-02-25T21:00:00.000Z,2024-02-25T21:00:00.000Z,74:97:8E:00:26:5A,,infra,,2,0,?,?,?,False,52,0.0,wpa2,US,CA,Geary Boulevard,San Francisco,,95115,Business
33.89971924,-118.02922821,Helium Mobile,0,20240125-00000,2024-01-20T22:00:00.000Z,2024-01-25T09:00:00.000Z,2024-01-25T09:00:00.000Z,74:97:8E:00:26:8B,,infra,,2,0,?,?,?,False,11,,wpa2,US,CA,Valley View Avenue,,,90638,Business
47.49163818,-121.77987671,Helium Mobile,0,20240806-00000,2024-07-15T14:00:00.000Z,2024-08-06T14:00:00.000Z,2024-08-06T15:00:00.000Z,74:97:8E:00:26:CB,,infra,,2,0,?,?,?,False,11,0.0,wpa2,US,WA,East North Bend Way,,,,Residential
33.08601761,-96.64121246,Helium Mobile,6,20240123-00000,2024-01-23T21:00:00.000Z,2024-07-12T20:00:00.000Z,2024-07-12T21:00:00.000Z,74:97:8E:00:27:0A,,infra,,2,0,?,?,?,False,100,0.0,wpa2,US,TX,East Bethany Drive,Allen,,75002,Business
33.08608627,-96.64157104,Helium Mobile,7,20240123-00000,2024-01-23T21:00:00.000Z,2024-07-12T20:00:00.000Z,2024-07-12T21:00:00.000Z,74:97:8E:00:27:0B,,infra,,2,0,?,?,?,False,1,0.0,wpa2,US,TX,East Bethany Drive,Allen,,75002,Business
26.3960247,-80.19274139,Helium Mobile,0,20240328-00000,2024-03-28T17:00:00.000Z,2024-03-28T11:00:00.000Z,2024-03-28T12:00:00.000Z,74:97:8E:00:27:2A,,infra,,2,0,?,?,?,False,116,0.0,wpa2,US,FL,Aegean Drive,,,33496,Residential
38.89741516,-77.02397156,Helium Mobile,7,20240113-00000,2024-01-13T19:00:00.000Z,2024-03-23T16:00:00.000Z,2024-03-23T18:00:00.000Z,74:97:8E:00:27:52,,infra,,2,0,?,?,?,False,116,0.0,wpa2,US,DC,9th Street Northwest,Washington,,20001,Business
38.89751434,-77.02384186,Helium Mobile,6,20240121-00000,2024-01-21T21:00:00.000Z,2024-03-23T16:00:00.000Z,2024-03-23T18:00:00.000Z,74:97:8E:00:27:53,,infra,,2,0,?,?,?,False,11,0.0,wpa2,US,DC,,Washington,,20220,Residential
36.0644722,-114.98074341,Helium Mobile,0,20240709-00000,2024-07-09T16:00:00.000Z,2024-07-09T15:00:00.000Z,2024-07-09T15:00:00.000Z,74:97:8E:00:27:62,,infra,,2,0,?,?,?,False,132,0.0,wpa2,US,NV,Omaggio Place,Henderson,,89011,Residential
36.06414032,-114.98051453,Helium Mobile,1,20240709-00000,2024-07-09T16:00:00.000Z,2024-07-09T15:00:00.000Z,2024-07-09T15:00:00.000Z,74:97:8E:00:27:63,,????,,2,0,?,?,?,False,11,0.0,wpa2,US,NV,Omaggio Place,Henderson,,89011,Residential
41.96943665,-87.70223999,Helium Mobile,0,20240302-00000,2024-03-02T19:00:00.000Z,2024-03-02T12:00:00.000Z,2024-03-02T17:00:00.000Z,74:97:8E:00:27:9A,,infra,,2,0,?,?,?,False,132,0.0,wpa2,US,IL,North Shore Channel Trail,Chicago,,60625,Residential
38.69824219,-90.46385956,Helium Mobile,0,20240712-00000,2024-07-12T18:00:00.000Z,2024-07-12T14:00:00.000Z,2024-07-12T15:00:00.000Z,74:97:8E:00:27:C2,,infra,,2,0,?,?,?,False,149,0.0,wpa2,US,MO,Wissant Lane,,,63146,Residential
34.15035248,-118.39568329,Helium Mobile,1,20240502-00000,2024-05-03T02:00:00.000Z,2024-05-10T15:00:00.000Z,2024-05-10T15:00:00.000Z,74:97:8E:00:27:CA,,infra,,2,0,?,?,?,False,116,0.0,wpa2,US,CA,Moorpark Street,Los Angeles,,91604,Residential
34.15040588,-118.39565277,Helium Mobile,4,20240312-00000,2024-03-13T01:00:00.000Z,2024-08-10T15:00:00.000Z,2024-08-10T17:00:00.000Z,74:97:8E:00:27:CB,,infra,,2,0,?,?,?,False,11,0.0,wpa2,US,CA,Moorpark Street,Los Angeles,,91604,Residential
40.55569458,-74.34744263,Helium Mobile,0,20240405-00000,2024-04-05T20:00:00.000Z,2024-04-05T16:00:00.000Z,2024-04-05T18:00:00.000Z,74:97:8E:00:27:DA,,infra,,2,0,?,?,?,False,100,0.0,wpa2,US,NJ,Lincoln Highway,,2,08820-3924,Business
40.55565262,-74.3470993,Helium Mobile,1,20240106-00000,2024-01-06T14:00:00.000Z,2024-04-05T16:00:00.000Z,2024-04-05T18:00:00.000Z,74:97:8E:00:27:DB,,infra,,2,0,?,?,?,False,1,0.0,wpa2,US,NJ,Lincoln Highway,,2,08820-3924,Business
40.42463303,-74.42020416,Helium Mobile,1,20240216-00000,2024-02-14T21:00:00.000Z,2024-03-15T19:00:00.000Z,2024-03-15T20:00:00.000Z,74:97:8E:00:27:E3,,infra,,2,0,?,?,?,False,11,0.0,wpa2,US,NJ,Dunhams Corner Road,,,08816,Residential
25.77267265,-80.32328796,Helium Mobile,0,20240511-00000,2024-05-11T14:00:00.000Z,2024-05-11T12:00:00.000Z,2024-05-11T13:00:00.000Z,74:97:8E:00:27:F3,,infra,,2,0,?,?,?,False,11,0.0,wpa2,US,FL,West Flagler Street,,7795,33144,Business
43.6526413,-116.35427094,Helium Mobile,2,20240324-00000,2024-03-10T21:00:00.000Z,2024-05-26T12:00:00.000Z,2024-05-26T13:00:00.000Z,74:97:8E:00:28:22,,infra,,2,0,?,?,?,False,116,0.0,wpa2,US,ID,North Eagle Road,Meridian,,83713,Residential
43.65288544,-116.3543396,Helium Mobile,0,20240420-00000,2024-04-20T13:00:00.000Z,2024-04-20T06:00:00.000Z,2024-04-20T06:00:00.000Z,74:97:8E:00:28:23,,infra,,2,0,?,?,?,False,1,0.0,wpa2,US,ID,North Eagle Road,Meridian,,83713,Residential
33.45820236,-112.39789581,Helium Mobile,0,20240117-00000,2024-01-17T12:00:00.000Z,2024-01-17T06:00:00.000Z,2024-01-17T09:00:00.000Z,74:97:8E:00:28:42,,infra,,2,0,?,?,?,False,52,,wpa2,US,AZ,West Linden Street,,,85338-3031,Residential
33.45749664,-112.39774323,Helium Mobile,4,20240117-00000,2024-01-17T12:00:00.000Z,2024-02-10T18:00:00.000Z,2024-02-10T19:00:00.000Z,74:97:8E:00:28:43,,infra,,2,0,?,?,?,False,1,0.0,wpa2,US,AZ,West Roosevelt Street,,,85338-3031,Residential
38.43374634,-78.88314056,Helium Mobile,0,20240109-00000,2024-01-09T18:00:00.000Z,2024-01-09T12:00:00.000Z,2024-01-09T12:00:00.000Z,74:97:8E:00:28:7B,,infra,,2,0,?,?,?,False,11,,wpa2,US,VA,South Avenue,Harrisonburg,11,22801,Residential
40.72519302,-73.99688721,Helium Mobile,0,20240122-00000,2024-01-19T16:00:00.000Z,2024-01-22T12:00:00.000Z,2024-01-22T12:00:00.000Z,74:97:8E:00:28:8A,,infra,,2,0,?,?,?,False,132,,wpa2,US,NY,Broadway,City of New York,598,10012,Residential
40.72534943,-73.99667358,Helium Mobile,0,20240122-00000,2024-01-19T16:00:00.000Z,2024-01-22T12:00:00.000Z,2024-01-22T12:00:00.000Z,74:97:8E:00:28:8B,,infra,,2,0,?,?,?,False,11,,wpa2,US,NY,Crosby Street,City of New York,,10012,Business
39.76089859,-105.02928925,Helium Mobile,1,20240221-00000,2024-02-21T17:00:00.000Z,2024-03-26T18:00:00.000Z,2024-03-26T21:00:00.000Z,74:97:8E:00:28:C2,,infra,,2,0,?,?,?,False,100,0.0,wpa2,US,CO,West 31st Avenue,Denver,3245,80211,Residential
39.76084518,-105.02866364,Helium Mobile,0,20240326-00000,2024-03-25T22:00:00.000Z,2024-03-26T18:00:00.000Z,2024-03-26T21:00:00.000Z,74:97:8E:00:28:C3,,infra,,2,0,?,?,?,False,1,0.0,wpa2,US,CO,West 31st Avenue,Denver,3212,80211,Residential
34.75040436,-120.28268433,Helium Mobile,2,20240319-00000,2024-03-16T20:00:00.000Z,2024-08-01T12:00:00.000Z,2024-08-01T12:00:00.000Z,74:97:8E:00:28:EB,,infra,,2,0,?,?,?,False,1,0.0,wpa2,US,CA,US 101,,,93440,Business
40.73971558,-74.02675629,Helium Mobile,0,20240304-00000,2024-03-04T17:00:00.000Z,2024-03-04T10:00:00.000Z,2024-03-04T10:00:00.000Z,74:97:8E:00:29:0A,,infra,,2,0,?,?,?,False,100,0.0,wpa2,US,NJ,Hoboken Newport Walkway  Hudson River Waterfront Walkway,Hoboken,,07030-5774,Residential
39.20981979,-94.57627106,Helium Mobile,3,20240326-00000,2024-03-26T03:00:00.000Z,2024-03-31T12:00:00.000Z,2024-03-31T13:00:00.000Z,74:97:8E:00:29:32,,infra,,2,0,?,?,?,False,52,0.0,wpa2,US,MO,North Oak Trafficway,,6333,64118,Residential
39.21002197,-94.57627869,Helium Mobile,0,20240331-00000,2024-03-23T02:00:00.000Z,2024-03-31T12:00:00.000Z,2024-03-31T13:00:00.000Z,74:97:8E:00:29:33,,infra,,2,0,?,?,?,False,1,0.0,wpa2,US,MO,North Oak Trafficway,,6333,64118,Residential
33.57624817,-117.72338104,Helium Mobile,1,20240131-00000,2024-01-22T22:00:00.000Z,2024-06-22T19:00:00.000Z,2024-06-22T20:00:00.000Z,74:97:8E:00:29:3B,,infra,,2,0,?,?,?,False,11,0.0,wpa2,US,CA,Aliso Creek Road,,26641,92656,Business
27.86182976,-82.69988251,Helium Mobile,2,20240321-00000,2024-03-21T15:00:00.000Z,2024-06-27T06:00:00.000Z,2024-06-27T08:00:00.000Z,74:97:8E:00:29:4A,,infra,,2,0,?,?,?,False,149,0.0,wpa2,US,FL,US Highway 19 North,Pinellas Park,,33782-5404,Business
27.85839272,-82.697258,Helium Mobile,0,20240321-00000,2024-03-21T15:00:00.000Z,2024-03-21T16:00:00.000Z,2024-03-21T19:00:00.000Z,74:97:8E:00:29:4B,,infra,,2,0,?,?,?,False,11,0.0,wpa2,US,FL,US Highway 19 North,Pinellas Park,9501,33782,Business
36.0181427,-114.96318054,Helium Mobile,0,20240801-00000,2024-08-01T16:00:00.000Z,2024-08-01T13:00:00.000Z,2024-08-01T13:00:00.000Z,74:97:8E:00:29:A2,,infra,,2,0,?,?,?,False,132,0.0,wpa2,US,NV,College Drive,Henderson,,89015,Business
36.01799011,-114.96322632,Helium Mobile,1,20240801-00000,2024-08-01T16:00:00.000Z,2024-08-03T18:00:00.000Z,2024-08-04T04:00:00.000Z,74:97:8E:00:29:A3,,????,,2,0,?,?,?,False,6,0.0,wpa2,US,NV,College Drive,Henderson,,89015,Business
39.04253006,-75.54821014,Helium Mobile,0,20240406-00000,2024-04-05T20:00:00.000Z,2024-04-06T02:00:00.000Z,2024-04-06T04:00:00.000Z,74:97:8E:00:29:BA,,infra,,2,0,?,?,?,False,100,0.0,wpa2,US,DE,Irish Hill Road,,,19962,Residential
39.04259872,-75.54829407,Helium Mobile,1,20240406-00000,2024-04-05T16:00:00.000Z,2024-06-15T17:00:00.000Z,2024-06-16T03:00:00.000Z,74:97:8E:00:29:BB,,infra,,2,0,?,?,?,False,1,0.0,wpa2,US,DE,Irish Hill Road,,,19962,Residential
37.9970932,-84.51032257,Helium Mobile,0,20240527-00000,2024-05-27T18:00:00.000Z,2024-05-27T12:00:00.000Z,2024-05-27T12:00:00.000Z,74:97:8E:00:2A:22,,infra,,2,0,?,?,?,False,36,0.0,wpa2,US,KY,Malabu Drive,Lexington,,40503-1926,Residential
37.99694824,-84.51000214,Helium Mobile,0,20240527-00000,2024-05-27T18:00:00.000Z,2024-05-27T12:00:00.000Z,2024-05-27T12:00:00.000Z,74:97:8E:00:2A:23,,infra,,2,0,?,?,?,False,1,0.0,wpa2,US,KY,Malabu Drive,Lexington,,40503-1926,Residential
36.42247391,-82.43859863,Helium Mobile,1,20240505-00000,2024-05-05T21:00:00.000Z,2024-05-19T14:00:00.000Z,2024-05-19T19:00:00.000Z,74:97:8E:00:2A:3A,,infra,,2,0,?,?,?,False,52,0.0,wpa2,US,TN,Circle Drive,,,37615,Residential
36.42289352,-82.43925476,Helium Mobile,1,20240519-00000,2024-05-19T20:00:00.000Z,2024-05-25T12:00:00.000Z,2024-05-25T13:00:00.000Z,74:97:8E:00:2A:3B,,infra,,2,0,?,?,?,False,11,0.0,wpa2,US,TN,Kingsport Highway,,,37615,Residential
34.10195541,-118.0996933,Helium Mobile,2,20240427-00000,2024-04-28T05:00:00.000Z,2024-06-04T16:00:00.000Z,2024-08-04T17:00:00.000Z,74:97:8E:00:2A:D2,,infra,,2,0,?,?,?,False,116,0.0,wpa2,US,CA,Del Mar Avenue,San Gabriel,,91778,Residential
34.10205841,-118.09986877,Helium Mobile,1,20240225-00000,2024-02-25T20:00:00.000Z,2024-05-15T14:00:00.000Z,2024-08-06T11:00:00.000Z,74:97:8E:00:2A:D3,,infra,,2,0,?,?,?,False,8,0.0,wpa2,US,CA,Del Mar Avenue,San Gabriel,,91778,Other
29.80882072,-95.41720581,Helium Mobile,2,20240129-00000,2024-01-29T18:00:00.000Z,2024-03-15T07:00:00.000Z,2024-03-15T07:00:00.000Z,74:97:8E:00:2A:DA,,infra,,2,0,?,?,?,False,116,0.0,wpa2,US,TX,West 25th Street,Houston,,77008,Residential
29.8087368,-95.41790771,Helium Mobile,0,20240208-00000,2024-02-09T00:00:00.000Z,2024-02-08T16:00:00.000Z,2024-02-08T17:00:00.000Z,74:97:8E:00:2A:DB,,infra,,2,0,?,?,?,False,11,0.0,wpa2,US,TX,West 25th Street,Houston,,77008,Residential
33.87887192,-118.38004303,Helium Mobile,0,20240428-00000,2024-04-28T05:00:00.000Z,2024-04-28T04:00:00.000Z,2024-04-28T04:00:00.000Z,74:97:8E:00:2B:12,,infra,,2,0,?,?,?,False,52,0.0,wpa2,US,CA,Aviation Boulevard,,117,90266,Residential
28.35713387,-81.48406219,Helium Mobile,2,20240209-00000,2024-02-09T14:00:00.000Z,2024-02-17T11:00:00.000Z,2024-02-17T12:00:00.000Z,74:97:8E:00:2B:1A,,infra,,2,0,?,?,?,False,100,0.0,wpa2,US,FL,Southern Connector Extension,,,32821-5616,Business
28.35759926,-81.48451996,Helium Mobile,4,20240120-00000,2024-01-20T20:00:00.000Z,2024-03-16T08:00:00.000Z,2024-03-16T09:00:00.000Z,74:97:8E:00:2B:1B,,infra,,2,0,?,?,?,False,8,0.0,wpa2,US,FL,World Center Drive,,,32821-5616,Business
40.10770035,-104.93831635,Helium Mobile,5,20240131-00000,2024-01-30T21:00:00.000Z,2024-04-18T07:00:00.000Z,2024-04-18T07:00:00.000Z,74:97:8E:00:2B:33,,infra,,2,0,?,?,?,False,1,0.0,wpa2,US,CO,Johnson Street,,,80530,Residential
40.75104523,-111.87116241,Helium Mobile,0,20240201-00000,2024-02-01T14:00:00.000Z,2024-02-01T06:00:00.000Z,2024-02-01T06:00:00.000Z,74:97:8E:00:2B:9A,,infra,,2,0,?,?,?,False,100,0.0,wpa2,US,UT,700 East,Salt Lake City,834,84102,Residential
40.75113297,-111.87110138,Helium Mobile,3,20240201-00000,2024-02-01T14:00:00.000Z,2024-04-20T17:00:00.000Z,2024-04-20T21:00:00.000Z,74:97:8E:00:2B:9B,,infra,,2,0,?,?,?,False,8,0.0,wpa2,US,UT,700 East,Salt Lake City,832,84102,Residential
40.02595139,-75.13278198,Helium Mobile,0,20240313-00000,2024-03-13T14:00:00.000Z,2024-03-13T09:00:00.000Z,2024-03-13T09:00:00.000Z,74:97:8E:00:2C:3A,,infra,,2,0,?,?,?,False,36,0.0,wpa2,US,PA,N 5th Street,Philadelphia,,19120,Residential
40.02597427,-75.13277435,Helium Mobile,0,20240313-00000,2024-03-13T14:00:00.000Z,2024-03-13T09:00:00.000Z,2024-03-13T09:00:00.000Z,74:97:8E:00:2C:3B,,infra,,2,0,?,?,?,False,1,0.0,wpa2,US,PA,N 5th Street,Philadelphia,,19120,Residential
33.63585281,-112.42676544,Helium Mobile,3,20240127-00000,2024-01-27T21:00:00.000Z,2024-06-20T00:00:00.000Z,2024-06-20T01:00:00.000Z,74:97:8E:00:2C:42,,infra,,2,0,?,?,?,False,100,0.0,wpa2,US,AZ,North Cotton Lane,Surprise,,85388,Residential
33.63550949,-112.42681122,Helium Mobile,5,20240127-00000,2024-01-27T21:00:00.000Z,2024-06-20T00:00:00.000Z,2024-06-20T01:00:00.000Z,74:97:8E:00:2C:43,,infra,,2,0,?,?,?,False,11,0.0,wpa2,US,AZ,North Cotton Lane,Surprise,,85388,Residential
41.7910881,-71.49653625,Helium Mobile,2,20240216-00000,2024-02-16T22:00:00.000Z,2024-07-15T07:00:00.000Z,2024-07-15T09:00:00.000Z,74:97:8E:00:2C:73,,infra,,2,0,?,?,?,False,11,0.0,wpa2,US,RI,Plainfield Pike,,,02919-4911,Residential
38.51065826,-121.38131714,Helium Mobile,0,20240220-00000,2024-02-21T00:00:00.000Z,2024-02-20T20:00:00.000Z,2024-02-20T20:00:00.000Z,74:97:8E:00:2C:7B,,infra,,2,0,?,?,?,False,1,0.0,wpa2,US,CA,Elder Creek Road,Sacramento,,95828,Residential
41.44978333,-75.66680145,Helium Mobile,0,20240806-00000,2024-08-06T21:00:00.000Z,2024-08-06T15:00:00.000Z,2024-08-06T16:00:00.000Z,74:97:8E:00:2C:CA,,infra,,2,0,?,?,?,False,100,0.0,wpa2,US,PA,Oak Street,Scranton,,18508,Residential
41.44978333,-75.66680145,Helium Mobile,0,20240806-00000,2024-08-06T21:00:00.000Z,2024-08-06T15:00:00.000Z,2024-08-06T16:00:00.000Z,74:97:8E:00:2C:CB,,infra,,2,0,?,?,?,False,11,0.0,wpa2,US,PA,Oak Street,Scranton,,18508,Residential
35.46595001,-80.87569427,Helium Mobile,2,20240208-00000,2024-02-08T16:00:00.000Z,2024-06-03T06:00:00.000Z,2024-06-03T06:00:00.000Z,74:97:8E:00:2C:DB,,infra,,2,0,?,?,?,False,9,0.0,wpa2,US,NC,I 77 Express Lanes,,,28031,Business
32.23521042,-110.85873413,Helium Mobile,2,20240502-00000,2024-05-02T20:00:00.000Z,2024-06-29T21:00:00.000Z,2024-06-29T22:00:00.000Z,74:97:8E:00:2D:0B,,infra,,2,0,?,?,?,False,2,0.0,wpa2,US,AZ,East Speedway Boulevard,Tucson,6260,85712,Business
39.06032562,-77.12257385,Helium Mobile,0,20240708-00000,2024-07-08T23:00:00.000Z,2024-07-08T20:00:00.000Z,2024-07-08T20:00:00.000Z,74:97:8E:00:2D:4A,,infra,,2,0,?,?,?,False,116,0.0,wpa2,US,MD,Rockville Pike,Rockville,,20852-1601,Business
37.43173599,-122.20152283,Helium Mobile,0,20240407-00000,2024-04-06T02:00:00.000Z,2024-04-07T19:00:00.000Z,2024-04-08T09:00:00.000Z,74:97:8E:00:2D:93,,infra,,2,0,?,?,?,False,11,0.0,wpa2,US,CA,Alameda de las Pulgas,,,94025,Residential
37.74171448,-122.38835144,Helium Mobile,0,20240118-00000,2024-01-19T00:00:00.000Z,2024-01-18T22:00:00.000Z,2024-01-18T22:00:00.000Z,74:97:8E:00:2D:9A,,infra,,2,0,?,?,?,False,116,,wpa2,US,CA,3rd Street,San Francisco,,94188,Business
37.74171448,-122.38835144,Helium Mobile,0,20240118-00000,2024-01-19T00:00:00.000Z,2024-01-18T22:00:00.000Z,2024-01-18T22:00:00.000Z,74:97:8E:00:2D:9B,,infra,,2,0,?,?,?,False,11,,wpa2,US,CA,3rd Street,San Francisco,,94188,Business
41.79570007,-74.74463654,Helium Mobile,0,20240409-00000,2024-04-08T15:00:00.000Z,2024-04-09T07:00:00.000Z,2024-04-09T15:00:00.000Z,74:97:8E:00:2D:A2,,infra,,2,0,?,?,?,False,132,0.0,wpa2,US,NY,State Street,,,12754,Residential
41.79587936,-74.74530029,Helium Mobile,1,20240409-00000,2024-04-08T15:00:00.000Z,2024-04-10T13:00:00.000Z,2024-04-10T23:00:00.000Z,74:97:8E:00:2D:A3,,infra,,2,0,?,?,?,False,11,0.0,wpa2,US,NY,State Street,,6,12754,Residential
40.68086624,-73.77996826,Helium Mobile,0,20240626-00000,2024-06-26T07:00:00.000Z,2024-06-26T02:00:00.000Z,2024-06-26T02:00:00.000Z,74:97:8E:00:2D:BA,,infra,,2,0,?,?,?,False,100,0.0,wpa2,US,NY,164th Street,City of New York,120-13,11434,Residential
40.68084717,-73.77996063,Helium Mobile,0,20240626-00000,2024-06-26T07:00:00.000Z,2024-06-26T02:00:00.000Z,2024-06-26T02:00:00.000Z,74:97:8E:00:2D:BB,,infra,,Y,0,?,?,?,False,1,0.0,wep,US,NY,164th Street,City of New York,120-13,11434,Residential
31.08058929,-97.79399872,Helium Mobile,0,20240220-00000,2024-02-20T18:00:00.000Z,2024-02-20T10:00:00.000Z,2024-02-20T10:00:00.000Z,74:97:8E:00:2E:12,,infra,,2,0,?,?,?,False,116,0.0,wpa2,US,TX,Leather Drive,Killeen,,76549,Residential
31.08078003,-97.79417419,Helium Mobile,0,20240220-00000,2024-02-20T18:00:00.000Z,2024-02-20T10:00:00.000Z,2024-02-20T10:00:00.000Z,74:97:8E:00:2E:13,,infra,,2,0,?,?,?,False,1,0.0,wpa2,US,TX,Latigo Drive,Killeen,,76549,Residential
